,Unnamed: 0,0,1,2,Venue,Opened,Info,Also known as,Closed,Open,address_freq,inconsistent,venue_freq,address_prompt,location,point,latitude,longitude,altitude,address_prompt2,location2,point2,latitude2,longitude2,altitude2,is_problem,Lat,Long,Side of River
259,259,80 Lygon St,Brunswick East VIC 3057,Australia,"Bridge Hotel, Melbourne, Australia",,,"The B East, ",,,2,TRUE,15,80 Lygon St Brunswick East VIC 3057 Australia,"The B.East, 80, Lygon Street, Brunswick East, Melbourne, City of Merri-bek, Victoria, 3057, Australia","(-37.7763121, 144.9711859, 0.0)",-37.7763121,144.9711859,0,"Bridge Hotel, Melbourne, Australia","Bridge Hotel, 197, Watton Street, Werribee, Melbourne, City of Wyndham, Victoria, 3030, Australia","(-37.9043196, 144.65648, 0.0)",-37.9043196,144.65648,0,Address match and venue match found but they conflict. Choose the most accurate.,,,North
77,77,,,,"The Commercial Hotel, Melbourne, Australia",,,,,,,,58,"The Commercial Hotel, Melbourne, Australia","The Commercial Hotel, 111, Watton Street, Werribee, Melbourne, City of Wyndham, Victoria, 3030, Australia","(-37.9021764, 144.6601856, 0.0)",-37.9021764,144.6601856,0,"The Commercial Hotel, Melbourne, Australia","The Commercial Hotel, 111, Watton Street, Werribee, Melbourne, City of Wyndham, Victoria, 3030, Australia","(-37.9021764, 144.6601856, 0.0)",-37.9021764,144.6601856,0,Same match for venue and address.,,,
73,73,Main Dr,Werribee South VIC 3030,Australia,"Werribee Park, Melbourne, Australia",,,Werribee Mansion,,,1,,35,Main Dr Werribee South VIC 3030 Australia,"Main Drive, Werribee South, Melbourne, City of Wyndham, Victoria, 3030, Australia","(-37.9211348, 144.6769283, 0.0)",-37.9211348,144.6769283,0,"Werribee Park, Melbourne, Australia","Werribee Park, Werribee South, Melbourne, City of Wyndham, Victoria, Australia","(-37.92754325, 144.6712824060007, 0.0)",-37.92754325,144.6712824,0,Address match and venue match found but they conflict. Choose the most accurate.,,,North
36,36,71A Acland St,St Kilda VIC 3182,Australia,"The Vineyard, Melbourne, Australia",,,,,,1,,14,71A Acland St St Kilda VIC 3182 Australia,"Acland Street, St Kilda, Melbourne, City of Port Phillip, Victoria, 3182, Australia","(-37.867018, 144.9782333, 0.0)",-37.867018,144.9782333,0,"The Vineyard, Melbourne, Australia","The Vineyard, Fingal, Melbourne, Shire of Mornington Peninsula, Victoria, 3941, Australia","(-38.4087953, 144.8577441, 0.0)",-38.4087953,144.8577441,0,Address match and venue match found but they conflict. Choose the most accurate.,,,South
135,135,,,,"The Substation, Melbourne, Australia",,,,,,,,10,"The Substation, Melbourne, Australia","The Substation, 1, Market Street, Newport, Melbourne, City of Hobsons Bay, Victoria, 3015, Australia","(-37.8442106, 144.8829759490136, 0.0)",-37.8442106,144.8829759,0,"The Substation, Melbourne, Australia","The Substation, 1, Market Street, Newport, Melbourne, City of Hobsons Bay, Victoria, 3015, Australia","(-37.8442106, 144.8829759490136, 0.0)",-37.8442106,144.8829759,0,Same match for venue and address.,,,
101,101,135 Stephen St,Yarraville VIC 3013,Australia,"Yarraville Club, Melbourne, Australia",,,Yarraville Live,,,1,,17,135 Stephen St Yarraville VIC 3013 Australia,"Stephen Street, Yarraville, Melbourne, City of Maribyrnong, Victoria, 3013, Australia","(-37.8185301, 144.8939457, 0.0)",-37.8185301,144.8939457,0,"Yarraville Club, Melbourne, Australia","Yarraville Club, 129, Stephen Street, Yarraville, Melbourne, City of Maribyrnong, Victoria, 3013, Australia","(-37.81775145, 144.89442343709425, 0.0)",-37.81775145,144.8944234,0,Address match and venue match found but they conflict. Choose the most accurate.,,,
164,164,,,,"Phoenix Youth Centre, Melbourne, Australia",,,,,,,,36,"Phoenix Youth Centre, Melbourne, Australia","Phoenix Youth Centre, 72, Buckley Street, Footscray, Melbourne, City of Maribyrnong, Victoria, 3011, Australia","(-37.80331765, 144.89540951645057, 0.0)",-37.80331765,144.8954095,0,"Phoenix Youth Centre, Melbourne, Australia","Phoenix Youth Centre, 72, Buckley Street, Footscray, Melbourne, City of Maribyrnong, Victoria, 3011, Australia","(-37.80331765, 144.89540951645057, 0.0)",-37.80331765,144.8954095,0,Same match for venue and address.,,,
117,117,,,,"Footscray Community Arts Centre, Melbourne, Australia",,,,,,,,15,"Footscray Community Arts Centre, Melbourne, Australia","Footscray Community Arts Centre, 45, Moreland Street, Footscray, Melbourne, City of Maribyrnong, Victoria, 3011, Australia","(-37.8033391, 144.9073334, 0.0)",-37.8033391,144.9073334,0,"Footscray Community Arts Centre, Melbourne, Australia","Footscray Community Arts Centre, 45, Moreland Street, Footscray, Melbourne, City of Maribyrnong, Victoria, 3011, Australia","(-37.8033391, 144.9073334, 0.0)",-37.8033391,144.9073334,0,Same match for venue and address.,,,
105,105,448 Epsom Rd,Flemington VIC 3031,Australia,"Flemington Racecourse, Melbourne, Australia",March 1840,,,,,1,,49,448 Epsom Rd Flemington VIC 3031 Australia,"Busters Bar, 448, Epsom Road, Flemington, Melbourne, City of Melbourne, Victoria, 3031, Australia","(-37.7874172, 144.9087629, 0.0)",-37.7874172,144.9087629,0,"Flemington Racecourse, Melbourne, Australia","Flemington Racecourse, Leonard Crescent, Flemington, Melbourne, City of Melbourne, Victoria, 3031, Australia","(-37.78732695, 144.90742357944026, 0.0)",-37.78732695,144.9074236,0,Address match and venue match found but they conflict. Choose the most accurate.,,,North
15,15,Epsom Road,Ascot Vale VIC 3032,Australia,"Royal Melbourne Showgrounds, Melbourne, Australia",1882,,"Melbourne Showgrounds, ",,,1,,95,Epsom Road Ascot Vale VIC 3032 Australia,"Epsom Road, Ascot Vale, Melbourne, City of Moonee Valley, Victoria, 3032, Australia","(-37.7733937, 144.9078944, 0.0)",-37.7733937,144.9078944,0,"Royal Melbourne Showgrounds, Melbourne, Australia","Royal Melbourne Showgrounds, Flemington, Melbourne, City of Melbourne, Victoria, Australia","(-37.782899549999996, 144.91133030360731, 0.0)",-37.78289955,144.9113303,0,Address match and venue match found but they conflict. Choose the most accurate.,,,North
140,140,109 Union St,Brunswick VIC 3056,Australia,"The Union Hotel, Melbourne, Australia",,,,,,1,,17,109 Union St Brunswick VIC 3056 Australia,"Union Hotel Brunswick, 109, Union Street, Brunswick, Melbourne, City of Merri-bek, Victoria, 3056, Australia","(-37.7734411, 144.9531861, 0.0)",-37.7734411,144.9531861,0,"The Union Hotel, Melbourne, Australia","The Union Hotel, Maribyrnong Road, Ascot Vale, Melbourne, City of Moonee Valley, Victoria, 3032, Australia","(-37.7719515, 144.9164886, 0.0)",-37.7719515,144.9164886,0,Address match and venue match found but they conflict. Choose the most accurate.,,,North
134,134,,,,"The Clocktower Centre, Melbourne, Australia",,,,,,,,10,"The Clocktower Centre, Melbourne, Australia","The Clocktower Centre, 750, Mount Alexander Road, Moonee Ponds, Melbourne, City of Moonee Valley, Victoria, 3039, Australia","(-37.7656716, 144.9248037207342, 0.0)",-37.7656716,144.9248037,0,"The Clocktower Centre, Melbourne, Australia","The Clocktower Centre, 750, Mount Alexander Road, Moonee Ponds, Melbourne, City of Moonee Valley, Victoria, 3039, Australia","(-37.7656716, 144.9248037207342, 0.0)",-37.7656716,144.9248037,0,Same match for venue and address.,,,
295,295,,,,"Cross Keys Hotel, Melbourne, Australia",,,Crosskeys Hotel,,,,,11,"Cross Keys Hotel, Melbourne, Australia","Cross Keys Hotel, Bridge Street, Essendon, Melbourne, City of Moonee Valley, Victoria, 3040, Australia","(-37.7442391, 144.9282811688889, 0.0)",-37.7442391,144.9282812,0,"Cross Keys Hotel, Melbourne, Australia","Cross Keys Hotel, Bridge Street, Essendon, Melbourne, City of Moonee Valley, Victoria, 3040, Australia","(-37.7442391, 144.9282811688889, 0.0)",-37.7442391,144.9282812,0,Same match for venue and address.,,,North
148,148,1 McPherson Street,Moonee Ponds VIC 3039,Australia,"Moonee Valley Racecourse, Melbourne, Australia",1883,,Moonee Valley Racing Club,,,1,,14,1 McPherson Street Moonee Ponds VIC 3039 Australia,"McPherson Street, Moonee Ponds, Melbourne, City of Moonee Valley, Victoria, 3039, Australia","(-37.7667472, 144.9272935, 0.0)",-37.7667472,144.9272935,0,"Moonee Valley Racecourse, Melbourne, Australia","Moonee Valley Racecourse, Thomas Street, Moonee Ponds, Melbourne, City of Moonee Valley, Victoria, 3039, Australia","(-37.7661244, 144.93233146423776, 0.0)",-37.7661244,144.9323315,0,Address match and venue match found but they conflict. Choose the most accurate.,,,North
232,232,,,,"Manchester Lane, Melbourne, Australia",,,,,,,,28,"Manchester Lane, Melbourne, Australia","Manchester Lane, Parkville, Melbourne, City of Melbourne, Victoria, 3055, Australia","(-37.7772056, 144.9384047, 0.0)",-37.7772056,144.9384047,0,"Manchester Lane, Melbourne, Australia","Manchester Lane, Parkville, Melbourne, City of Melbourne, Victoria, 3055, Australia","(-37.7772056, 144.9384047, 0.0)",-37.7772056,144.9384047,0,Same match for venue and address.,,,North
99,99,,,,"Estonian House, Melbourne, Australia",,,,,,,,12,"Estonian House, Melbourne, Australia","Estonian House, Melville Road, Brunswick West, Melbourne, City of Merri-bek, Victoria, 3055, Australia","(-37.76505375, 144.94338074299412, 0.0)",-37.76505375,144.9433807,0,"Estonian House, Melbourne, Australia","Estonian House, Melville Road, Brunswick West, Melbourne, City of Merri-bek, Victoria, 3055, Australia","(-37.76505375, 144.94338074299412, 0.0)",-37.76505375,144.9433807,0,Same match for venue and address.,,,North
187,187,74-76 Johnston Street,Fitzroy VIC 3065,Australia,"Next, Melbourne, Australia",,,,,,2,TRUE,28,74-76 Johnston Street Fitzroy VIC 3065 Australia,"The Old Bar, 74-76, Johnston Street, Fitzroy, Melbourne, City of Yarra, Victoria, 3065, Australia","(-37.79833, 144.97711, 0.0)",-37.79833,144.97711,0,"Next, Melbourne, Australia","Next, Victoria Street, Brunswick West, Melbourne, City of Merri-bek, Victoria, 3055, Australia","(-37.7646766, 144.9441144, 0.0)",-37.7646766,144.9441144,0,Address match and venue match found but they conflict. Choose the most accurate.,,,North
3,3,300 Dudley St,West Melbourne VIC 3003,Australia,"Festival Hall, Melbourne, Australia",1-May-59,West Melbourne Stadium (1915-1959)###Festival Hall (1959-),,,,1,,875,300 Dudley St West Melbourne VIC 3003 Australia,"Dudley Street, West Melbourne, Melbourne, City of Melbourne, Victoria, 3003, Australia","(-37.811003, 144.9478727, 0.0)",-37.811003,144.9478727,0,"Festival Hall, Melbourne, Australia","Festival Hall, 300, Dudley Street, Docklands, Melbourne, City of Melbourne, Victoria, 3008, Australia","(-37.8109812, 144.94646387053552, 0.0)",-37.8109812,144.9464639,0,Address match and venue match found but they conflict. Choose the most accurate.,,,
157,157,740 Bourke Street,Docklands VIC 3008,Australia,"Etihad Stadium, Melbourne, Australia",,Colonial Stadium (2000-2002)###Telstra Dome (2002-2009)###Etihad Stadium (2009-2018) ###Marvel Stadium (2018-),Docklands Stadium,,March 2009 - September 2018,3,FALSE,45,740 Bourke Street Docklands VIC 3008 Australia,"Bourke Street, Victoria Harbour, Docklands, Melbourne, City of Melbourne, Victoria, 3008, Australia","(-37.820631, 144.941386, 0.0)",-37.820631,144.941386,0,"Etihad Stadium, Melbourne, Australia","Marvel Stadium, Wurundjeri Way, Docklands, Melbourne, City of Melbourne, Victoria, 3008, Australia","(-37.816529, 144.94751697668812, 0.0)",-37.816529,144.947517,0,Address match and venue match found but they conflict. Choose the most accurate.,,,
80,80,33 Errol Street,North Melbourne VIC 3051,Australia,"Town Hall Hotel, Melbourne, Australia",1872,,Townhall Hotel,,,1,,36,33 Errol Street North Melbourne VIC 3051 Australia,"Town Hall Hotel, 33, Errol Street, North Melbourne, Melbourne, City of Melbourne, Victoria, 3051, Australia","(-37.80420025, 144.949015252071, 0.0)",-37.80420025,144.9490153,0,"Town Hall Hotel, Melbourne, Australia","Town Hall Hotel, 33, Errol Street, North Melbourne, Melbourne, City of Melbourne, Victoria, 3051, Australia","(-37.80420025, 144.949015252071, 0.0)",-37.80420025,144.9490153,0,Same match for venue and address.,,,North
212,212,717 Flinders St,Docklands VIC 3008,Australia,"Mission to Seafarers, Melbourne, Australia",,,,,,1,,21,717 Flinders St Docklands VIC 3008 Australia,"Flinders Street, Yarra’s Edge, Docklands, Melbourne, City of Melbourne, Victoria, 3008, Australia","(-37.8218082, 144.9518861, 0.0)",-37.8218082,144.9518861,0,"Mission to Seafarers, Melbourne, Australia","Mission to Seafarers, Wurundjeri Way, Yarra’s Edge, Docklands, Melbourne, City of Melbourne, Victoria, 3008, Australia","(-37.82252015, 144.95124903767876, 0.0)",-37.82252015,144.951249,0,Address match and venue match found but they conflict. Choose the most accurate.,,,
108,108,,,,"Royal Melbourne Zoo, Melbourne, Australia",,,,,,,,229,"Royal Melbourne Zoo, Melbourne, Australia","Royal Melbourne Zoo/Poplar Road, Poplar Road, Parkville, Melbourne, City of Melbourne, Victoria, 3052, Australia","(-37.7835112, 144.9550013, 0.0)",-37.7835112,144.9550013,0,"Royal Melbourne Zoo, Melbourne, Australia","Royal Melbourne Zoo/Poplar Road, Poplar Road, Parkville, Melbourne, City of Melbourne, Victoria, 3052, Australia","(-37.7835112, 144.9550013, 0.0)",-37.7835112,144.9550013,0,Same match for venue and address.,,,North
130,130,629 Bourke St,Melbourne VIC 3000,Australia,"Royal Melbourne Hotel, Melbourne, Australia",,,RMH The Venue,,,1,,29,629 Bourke St Melbourne VIC 3000 Australia,"Royal Melbourne Hotel, 629, Bourke Street, Melbourne, City of Melbourne, Victoria, 3000, Australia","(-37.8167994, 144.9552063, 0.0)",-37.8167994,144.9552063,0,"Royal Melbourne Hotel, Melbourne, Australia","Royal Melbourne Hotel, 629, Bourke Street, Melbourne, City of Melbourne, Victoria, 3000, Australia","(-37.8167994, 144.9552063, 0.0)",-37.8167994,144.9552063,0,Same match for venue and address.,,,
107,107,,,,"Brown Alley, Melbourne, Australia",,,Click Click,,,,,31,"Brown Alley, Melbourne, Australia","Brown Alley, Melbourne, City of Melbourne, Victoria, 3000, Australia","(-37.8148148, 144.955455, 0.0)",-37.8148148,144.955455,0,"Brown Alley, Melbourne, Australia","Brown Alley, Melbourne, City of Melbourne, Victoria, 3000, Australia","(-37.8148148, 144.955455, 0.0)",-37.8148148,144.955455,0,Same match for venue and address.,,,
240,240,,,,"The Green Room, Melbourne, Australia",,,,,,,,38,"The Green Room, Melbourne, Australia","the green room, 91, Dundas Place, Albert Park, Melbourne, City of Port Phillip, Victoria, 3206, Australia","(-37.84125625, 144.95548174422714, 0.0)",-37.84125625,144.9554817,0,"The Green Room, Melbourne, Australia","the green room, 91, Dundas Place, Albert Park, Melbourne, City of Port Phillip, Victoria, 3206, Australia","(-37.84125625, 144.95548174422714, 0.0)",-37.84125625,144.9554817,0,Same match for venue and address.,,,South
132,132,,,,"Geddes Lane, Melbourne, Australia",,,,,,,,10,"Geddes Lane, Melbourne, Australia","Geddes Lane, Melbourne, City of Melbourne, Victoria, 3000, Australia","(-37.819203, 144.9575115, 0.0)",-37.819203,144.9575115,0,"Geddes Lane, Melbourne, Australia","Geddes Lane, Melbourne, City of Melbourne, Victoria, 3000, Australia","(-37.819203, 144.9575115, 0.0)",-37.819203,144.9575115,0,Same match for venue and address.,,,
116,116,,,,"RMIT University (Brunswick Campus), Melbourne, Australia",,,Royal Melbourne Institute of Technology,,,,,16,"RMIT University (Brunswick Campus), Melbourne, Australia","RMIT University (Brunswick Campus), Goodman Street, Brunswick, Melbourne, City of Merri-bek, Victoria, 3056, Australia","(-37.7722196, 144.9578652075761, 0.0)",-37.7722196,144.9578652,0,"RMIT University (Brunswick Campus), Melbourne, Australia","RMIT University (Brunswick Campus), Goodman Street, Brunswick, Melbourne, City of Merri-bek, Victoria, 3056, Australia","(-37.7722196, 144.9578652075761, 0.0)",-37.7722196,144.9578652,0,Same match for venue and address.,,,North
162,162,"Level 3, Crown Melbourne, 8 Whiteman Street",Southbank VIC 3006,Australia,"Crown Casino, Melbourne, Australia",,,Crown Casino,,,2,TRUE,37,"Level 3, Crown Melbourne, 8 Whiteman Street Southbank VIC 3006 Australia",,,,,,"Crown Casino, Melbourne, Australia","Crown Entertainment Complex, 8, Whiteman Street, Southbank, Melbourne, City of Melbourne, Victoria, 3006, Australia","(-37.82333165, 144.95828578718215, 0.0)",-37.82333165,144.9582858,0,Address match and venue match found but they conflict. Choose the most accurate.,,,
100,100,,,,"The Jazzlab, Melbourne, Australia",,,,,,,,20,"The Jazzlab, Melbourne, Australia","The Jazzlab, Leslie Street, Brunswick, Melbourne, City of Merri-bek, Victoria, 3056, Australia","(-37.766894, 144.9586629, 0.0)",-37.766894,144.9586629,0,"The Jazzlab, Melbourne, Australia","The Jazzlab, Leslie Street, Brunswick, Melbourne, City of Merri-bek, Victoria, 3056, Australia","(-37.766894, 144.9586629, 0.0)",-37.766894,144.9586629,0,Same match for venue and address.,,,North
52,52,7-11 Dawson St,Brunswick VIC 3056,Australia,"Howler, Melbourne, Australia",,,,,,1,,243,7-11 Dawson St Brunswick VIC 3056 Australia,"Howler, 7-11, Dawson Street, Brunswick, Melbourne, City of Merri-bek, Victoria, 3056, Australia","(-37.7720304, 144.9596527, 0.0)",-37.7720304,144.9596527,0,"Howler, Melbourne, Australia","Howler, 7-11, Dawson Street, Brunswick, Melbourne, City of Merri-bek, Victoria, 3056, Australia","(-37.7720304, 144.9596527, 0.0)",-37.7720304,144.9596527,0,Same match for venue and address.,,,North
168,168,,,,"Horse Bazaar, Melbourne, Australia",,,,,,,,10,"Horse Bazaar, Melbourne, Australia","Horse Bazaar, 397, Little Lonsdale Street, Melbourne, City of Melbourne, Victoria, 3000, Australia","(-37.8118452, 144.9601792, 0.0)",-37.8118452,144.9601792,0,"Horse Bazaar, Melbourne, Australia","Horse Bazaar, 397, Little Lonsdale Street, Melbourne, City of Melbourne, Victoria, 3000, Australia","(-37.8118452, 144.9601792, 0.0)",-37.8118452,144.9601792,0,Same match for venue and address.,,,
200,200,163A Sydney Rd,Brunswick VIC 3056,Australia,"Cornish Arms, Melbourne, Australia",,,,,,1,,66,163A Sydney Rd Brunswick VIC 3056 Australia,"Cornish Arms Hotel, 163A, Sydney Road, Brunswick, Melbourne, City of Merri-bek, Victoria, 3056, Australia","(-37.7734011, 144.960771499187, 0.0)",-37.7734011,144.9607715,0,"Cornish Arms, Melbourne, Australia","Cornish Arms Hotel, 163A, Sydney Road, Brunswick, Melbourne, City of Merri-bek, Victoria, 3056, Australia","(-37.7734011, 144.960771499187, 0.0)",-37.7734011,144.9607715,0,Same match for venue and address.,,,North
158,158,280 Sydney Rd,Brunswick VIC 3056,Australia,"Brunswick Hotel, Melbourne, Australia",,,,,,2,TRUE,22,280 Sydney Rd Brunswick VIC 3056 Australia,"Retreat Hotel, 280, Sydney Road, Brunswick, Melbourne, City of Merri-bek, Victoria, 3056, Australia","(-37.7711458, 144.961617, 0.0)",-37.7711458,144.961617,0,"Brunswick Hotel, Melbourne, Australia","The Brunswick Hotel, Weston Street, Brunswick, Melbourne, City of Merri-bek, Victoria, 3056, Australia","(-37.77461065, 144.96123434259172, 0.0)",-37.77461065,144.9612343,0,Address match and venue match found but they conflict. Choose the most accurate.,,,North
103,103,314 Sydney Road,Brunswick VIC 3056,Australia,"The Spotted Mallard, Melbourne, Australia",,,,2020,,1,,77,314 Sydney Road Brunswick VIC 3056 Australia,"The Spotted Mallard, 314, Sydney Road, Brunswick, Melbourne, City of Merri-bek, Victoria, 3056, Australia","(-37.770456, 144.9617895, 0.0)",-37.770456,144.9617895,0,"The Spotted Mallard, Melbourne, Australia","The Spotted Mallard, 314, Sydney Road, Brunswick, Melbourne, City of Merri-bek, Victoria, 3056, Australia","(-37.770456, 144.9617895, 0.0)",-37.770456,144.9617895,0,Same match for venue and address.,,,North
68,68,,,,"Albert Park, Melbourne, Australia",,,,,,,,27,"Albert Park, Melbourne, Australia","Albert Park District, Melbourne, City of Port Phillip, Victoria, Australia","(-37.8477725, 144.9620086605321, 0.0)",-37.8477725,144.9620087,0,"Albert Park, Melbourne, Australia","Albert Park District, Melbourne, City of Port Phillip, Victoria, Australia","(-37.8477725, 144.9620086605321, 0.0)",-37.8477725,144.9620087,0,Same match for venue and address.,,,South
205,205,681 Sydney Rd,Brunswick VIC 3056,Australia,"Edinburgh Castle, Melbourne, Australia",,,Edinburgh Castle Hotel,,,1,,17,681 Sydney Rd Brunswick VIC 3056 Australia,"The Edinburgh Castle, 681, Sydney Road, Brunswick, Melbourne, City of Merri-bek, Victoria, 3056, Australia","(-37.760949499999995, 144.9629808761494, 0.0)",-37.7609495,144.9629809,0,"Edinburgh Castle, Melbourne, Australia","The Edinburgh Castle, 681, Sydney Road, Brunswick, Melbourne, City of Merri-bek, Victoria, 3056, Australia","(-37.760949499999995, 144.9629808761494, 0.0)",-37.7609495,144.9629809,0,Same match for venue and address.,,,North
113,113,,,,"Arrow on Swanston, Melbourne, Australia",,,,,,,,39,"Arrow on Swanston, Melbourne, Australia","Arrow on Swanston, 488, Swanston Street, Melbourne Innovation District, Carlton, Melbourne, City of Melbourne, Victoria, 3010, Australia","(-37.8055511, 144.9633148, 0.0)",-37.8055511,144.9633148,0,"Arrow on Swanston, Melbourne, Australia","Arrow on Swanston, 488, Swanston Street, Melbourne Innovation District, Carlton, Melbourne, City of Melbourne, Victoria, 3010, Australia","(-37.8055511, 144.9633148, 0.0)",-37.8055511,144.9633148,0,Same match for venue and address.,,,North
125,125,231 Sydney Rd,Coburg VIC 3058,Australia,"Post Office Hotel, Melbourne, Australia",,,,,,1,,19,231 Sydney Rd Coburg VIC 3058 Australia,"Sydney Road, Coburg, Melbourne, City of Merri-bek, Victoria, 3058, Australia","(-37.7356467, 144.9660578, 0.0)",-37.7356467,144.9660578,0,"Post Office Hotel, Melbourne, Australia","Post Office Hotel, Reynard Street, Coburg, Melbourne, City of Merri-bek, Victoria, 3058, Australia","(-37.7487664, 144.9649421, 0.0)",-37.7487664,144.9649421,0,Address match and venue match found but they conflict. Choose the most accurate.,,,North
268,268,,,,"Hilton Hotel, Melbourne, Australia",,,,,,,,30,"Hilton Hotel, Melbourne, Australia","DoubleTree by Hilton Hotel Melbourne - Flinders Street, 270, Flinders Street, Melbourne, City of Melbourne, Victoria, 3000, Australia","(-37.8177285, 144.9653561, 0.0)",-37.8177285,144.9653561,0,"Hilton Hotel, Melbourne, Australia","DoubleTree by Hilton Hotel Melbourne - Flinders Street, 270, Flinders Street, Melbourne, City of Melbourne, Victoria, 3000, Australia","(-37.8177285, 144.9653561, 0.0)",-37.8177285,144.9653561,0,Same match for venue and address.,,,
19,19,29 Lygon Street,Carlton VIC 3053,Australia,"John Curtin Hotel, Melbourne, Australia",,,The Curtin,,,2,FALSE,152,29 Lygon Street Carlton VIC 3053 Australia,"John Curtin Hotel, 29, Lygon Street, Little Italy, Melbourne Innovation District, Carlton, Melbourne, City of Melbourne, Victoria, 3053, Australia","(-37.8062123, 144.9657806, 0.0)",-37.8062123,144.9657806,0,"John Curtin Hotel, Melbourne, Australia","John Curtin Hotel, 29, Lygon Street, Little Italy, Melbourne Innovation District, Carlton, Melbourne, City of Melbourne, Victoria, 3053, Australia","(-37.8062123, 144.9657806, 0.0)",-37.8062123,144.9657806,0,Same match for venue and address.,,,North
65,65,120 Southbank Blvd,Southbank VIC 3006,Australia,"ABC Southbank Centre, Melbourne, Australia",1994,,ABC South Bank,,,1,,14,120 Southbank Blvd Southbank VIC 3006 Australia,"Iwaki Auditorium, 120, Southbank Boulevard, Southbank, Melbourne, City of Melbourne, Victoria, 3006, Australia","(-37.8237944, 144.9664137, 0.0)",-37.8237944,144.9664137,0,"ABC Southbank Centre, Melbourne, Australia","ABC Southbank Centre, 120, Southbank Boulevard, Southbank, Melbourne, City of Melbourne, Victoria, 3006, Australia","(-37.82398795, 144.966513502037, 0.0)",-37.82398795,144.9665135,0,Address match and venue match found but they conflict. Choose the most accurate.,,,
89,89,,,,"Laundry Bar, Melbourne, Australia",,,,,,,,24,"Laundry Bar, Melbourne, Australia","Sturt Street Laundry, Miles Street, Southbank, Melbourne, City of Melbourne, Victoria, 3006, Australia","(-37.8279808, 144.9667445, 0.0)",-37.8279808,144.9667445,0,"Laundry Bar, Melbourne, Australia","Sturt Street Laundry, Miles Street, Southbank, Melbourne, City of Melbourne, Victoria, 3006, Australia","(-37.8279808, 144.9667445, 0.0)",-37.8279808,144.9667445,0,Same match for venue and address.,,,
201,201,8 Gordon St,Elsternwick VIC 3185,Australia,"ABC Studios, Melbourne, Australia",,,,,1958 - 2017,1,,24,8 Gordon St Elsternwick VIC 3185 Australia,"ABC Television ABV-2, 8, Gordon Street, Elsternwick, Melbourne, City of Glen Eira, Victoria, 3185, Australia","(-37.881328249999996, 144.99907405496603, 0.0)",-37.88132825,144.9990741,0,"ABC Studios, Melbourne, Australia","ABC Radio Melbourne, 120, Southbank Boulevard, Southbank, Melbourne, City of Melbourne, Victoria, 3006, Australia","(-37.823852, 144.9667465, 0.0)",-37.823852,144.9667465,0,Address match and venue match found but they conflict. Choose the most accurate.,,,South
154,154,,,,"ABC Radio Melbourne, Melbourne, Australia",13-Oct-24,,FM Radio,,,,,24,"ABC Radio Melbourne, Melbourne, Australia","ABC Radio Melbourne, 120, Southbank Boulevard, Southbank, Melbourne, City of Melbourne, Victoria, 3006, Australia","(-37.823852, 144.9667465, 0.0)",-37.823852,144.9667465,0,"ABC Radio Melbourne, Melbourne, Australia","ABC Radio Melbourne, 120, Southbank Boulevard, Southbank, Melbourne, City of Melbourne, Victoria, 3006, Australia","(-37.823852, 144.9667465, 0.0)",-37.823852,144.9667465,0,Same match for venue and address.,,,
93,93,,,,"Melbourne Town Hall, Melbourne, Australia",,,,,,,,166,"Melbourne Town Hall, Melbourne, Australia","Melbourne Town Hall, 120, Swanston Street, Melbourne, City of Melbourne, Victoria, 3000, Australia","(-37.8149155, 144.96684862935388, 0.0)",-37.8149155,144.9668486,0,"Melbourne Town Hall, Melbourne, Australia","Melbourne Town Hall, 120, Swanston Street, Melbourne, City of Melbourne, Victoria, 3000, Australia","(-37.8149155, 144.96684862935388, 0.0)",-37.8149155,144.9668486,0,Same match for venue and address.,,,
138,138,,,,"Regent Theatre, Melbourne, Australia",15-Mar-29,Closed for redevelopment from September 1993 to 17 August 1996.,,,,,,74,"Regent Theatre, Melbourne, Australia","Regent Theatre, 191, Collins Street, Melbourne, City of Melbourne, Victoria, 3000, Australia","(-37.815497, 144.967598, 0.0)",-37.815497,144.967598,0,"Regent Theatre, Melbourne, Australia","Regent Theatre, 191, Collins Street, Melbourne, City of Melbourne, Victoria, 3000, Australia","(-37.815497, 144.967598, 0.0)",-37.815497,144.967598,0,Same match for venue and address.,,,
146,146,,,,"Bennetts Lane Jazz Club, Melbourne, Australia",,,,,,,,72,"Bennetts Lane Jazz Club, Melbourne, Australia","Bennetts Lane Jazz Club, Bennetts Lane, Melbourne, City of Melbourne, Victoria, 3000, Australia","(-37.8089838, 144.9676407, 0.0)",-37.8089838,144.9676407,0,"Bennetts Lane Jazz Club, Melbourne, Australia","Bennetts Lane Jazz Club, Bennetts Lane, Melbourne, City of Melbourne, Victoria, 3000, Australia","(-37.8089838, 144.9676407, 0.0)",-37.8089838,144.9676407,0,Same match for venue and address.,,,
5,5,170 Russell St,Melbourne VIC 3000,Australia,"170 Russell, Melbourne, Australia",2014,Formerly named Billboard The Venue,,,,1,,429,170 Russell St Melbourne VIC 3000 Australia,"The Billboard, 170, Russell Street, Chinatown, Melbourne, City of Melbourne, Victoria, 3000, Australia","(-37.8120109, 144.9679369, 0.0)",-37.8120109,144.9679369,0,"170 Russell, Melbourne, Australia","The Billboard, 170, Russell Street, Chinatown, Melbourne, City of Melbourne, Victoria, 3000, Australia","(-37.8120109, 144.9679369, 0.0)",-37.8120109,144.9679369,0,Same match for venue and address.,,,
250,250,100 St Kilda Rd,Southbank VIC 3004,Australia,"Melbourne Concert Hall, Melbourne, Australia",2004,"Previously named Melbourne Concert Hall, renamed in honour of Sir Rupert Hamer shortly after his death in 2004",Hammer Hall,,,3,TRUE,107,100 St Kilda Rd Southbank VIC 3004 Australia,"Hamer Hall, 100, St Kilda Road, Southbank, Melbourne, City of Melbourne, Victoria, 3004, Australia","(-37.8201575, 144.9679835243618, 0.0)",-37.8201575,144.9679835,0,"Melbourne Concert Hall, Melbourne, Australia","Hamer Hall, 100, St Kilda Road, Southbank, Melbourne, City of Melbourne, Victoria, 3004, Australia","(-37.8201575, 144.9679835243618, 0.0)",-37.8201575,144.9679835,0,Same match for venue and address.,,,
131,131,100 St Kilda Rd,Southbank VIC 3004,Australia,"The Arts Centre, Melbourne, Australia",2004,"Previously named Melbourne Concert Hall, renamed in honour of Sir Rupert Hamer shortly after his death in 2004",Hammer Hall,,,3,TRUE,65,100 St Kilda Rd Southbank VIC 3004 Australia,"Hamer Hall, 100, St Kilda Road, Southbank, Melbourne, City of Melbourne, Victoria, 3004, Australia","(-37.8201575, 144.9679835243618, 0.0)",-37.8201575,144.9679835,0,"The Arts Centre, Melbourne, Australia","Curve Bar, 100, St Kilda Road, Southbank, Melbourne, City of Melbourne, Victoria, 3000, Australia","(-37.821852, 144.968341, 0.0)",-37.821852,144.968341,0,Address match and venue match found but they conflict. Choose the most accurate.,,,
215,215,,,,"Roxanne Parlour, Melbourne, Australia",,,,,,,,29,"Roxanne Parlour, Melbourne, Australia","Roxanne Parlour, Coverlid Place, Chinatown, Melbourne, City of Melbourne, Victoria, 3000, Australia","(-37.81213, 144.968554, 0.0)",-37.81213,144.968554,0,"Roxanne Parlour, Melbourne, Australia","Roxanne Parlour, Coverlid Place, Chinatown, Melbourne, City of Melbourne, Victoria, 3000, Australia","(-37.81213, 144.968554, 0.0)",-37.81213,144.968554,0,Same match for venue and address.,,,
136,136,,,,"National Gallery of Victoria, Melbourne, Australia",,,NGV,,,,,38,"National Gallery of Victoria, Melbourne, Australia","National Gallery of Victoria (NGV International), 180, St Kilda Road, Southbank, Melbourne, City of Melbourne, Victoria, 3000, Australia","(-37.82266345, 144.96892412239615, 0.0)",-37.82266345,144.9689241,0,"National Gallery of Victoria, Melbourne, Australia","National Gallery of Victoria (NGV International), 180, St Kilda Road, Southbank, Melbourne, City of Melbourne, Victoria, 3000, Australia","(-37.82266345, 144.96892412239615, 0.0)",-37.82266345,144.9689241,0,Same match for venue and address.,,,
150,150,,,,"ACMI, Melbourne, Australia",,,,,,,,10,"ACMI, Melbourne, Australia","Australian Centre for the Moving Image (ACMI), Flinders Street, Melbourne, City of Melbourne, Victoria, 3000, Australia","(-37.81744845, 144.96906260859384, 0.0)",-37.81744845,144.9690626,0,"ACMI, Melbourne, Australia","Australian Centre for the Moving Image (ACMI), Flinders Street, Melbourne, City of Melbourne, Victoria, 3000, Australia","(-37.81744845, 144.96906260859384, 0.0)",-37.81744845,144.9690626,0,Same match for venue and address.,,,
151,151,,,,"Federation Square, Melbourne, Australia",,,,,,,,59,"Federation Square, Melbourne, Australia","Federation Square, Swanston Street, Melbourne, City of Melbourne, Victoria, 3000, Australia","(-37.8177759, 144.96918168147448, 0.0)",-37.8177759,144.9691817,0,"Federation Square, Melbourne, Australia","Federation Square, Swanston Street, Melbourne, City of Melbourne, Victoria, 3000, Australia","(-37.8177759, 144.96918168147448, 0.0)",-37.8177759,144.9691817,0,Same match for venue and address.,,,
7,7,154 Flinders St,Melbourne VIC 3000,Australia,"Forum Theatre, Melbourne, Australia",1929,,,,,3,TRUE,1008,154 Flinders St Melbourne VIC 3000 Australia,"The Forum, 154, Flinders Street, Melbourne, City of Melbourne, Victoria, 3000, Australia","(-37.816565, 144.96947, 0.0)",-37.816565,144.96947,0,"Forum Theatre, Melbourne, Australia","Forum Theatre, Russell Street, Melbourne, City of Melbourne, Victoria, 3000, Australia","(-37.81643995, 144.96937847488397, 0.0)",-37.81643995,144.9693785,0,Address match and venue match found but they conflict. Choose the most accurate.,,,
163,163,18 Market Ln,Melbourne VIC 3000,Australia,"Ding Dong Lounge, Melbourne, Australia",,,,13-Jan-18,,1,,213,18 Market Ln Melbourne VIC 3000 Australia,"Ding Dong Lounge, 18, Market Lane, Chinatown, Melbourne, City of Melbourne, Victoria, 3000, Australia","(-37.8117442, 144.9694036, 0.0)",-37.8117442,144.9694036,0,"Ding Dong Lounge, Melbourne, Australia","Ding Dong Lounge, 18, Market Lane, Chinatown, Melbourne, City of Melbourne, Victoria, 3000, Australia","(-37.8117442, 144.9694036, 0.0)",-37.8117442,144.9694036,0,Same match for venue and address.,,,
173,173,219 Exhibition Street,Melbourne VIC 3000,Australia,"Her Majesty's Theatre, Melbourne, Australia",1886,,,,,1,,13,219 Exhibition Street Melbourne VIC 3000 Australia,"Her Majesty's Theatre, 219, Exhibition Street, Melbourne, City of Melbourne, Victoria, 3000, Australia","(-37.810932050000005, 144.96962160199388, 0.0)",-37.81093205,144.9696216,0,"Her Majesty's Theatre, Melbourne, Australia","Her Majesty's Theatre, 219, Exhibition Street, Melbourne, City of Melbourne, Victoria, 3000, Australia","(-37.810932050000005, 144.96962160199388, 0.0)",-37.81093205,144.9696216,0,Same match for venue and address.,,,
85,85,,,,"Comedy Theatre, Melbourne, Australia",,,,,,,,27,"Comedy Theatre, Melbourne, Australia","Comedy Theatre, Exhibition Street, Melbourne, City of Melbourne, Victoria, 3000, Australia","(-37.8102557, 144.97019507730548, 0.0)",-37.8102557,144.9701951,0,"Comedy Theatre, Melbourne, Australia","Comedy Theatre, Exhibition Street, Melbourne, City of Melbourne, Victoria, 3000, Australia","(-37.8102557, 144.97019507730548, 0.0)",-37.8102557,144.9701951,0,Same match for venue and address.,,,
54,54,,,,"Cherry Bar, Melbourne, Australia",,,,,,,,143,"Cherry Bar, Melbourne, Australia","Cherry Bar, 68, Little Collins Street, Melbourne, City of Melbourne, Victoria, 3000, Australia","(-37.8128595, 144.9713425, 0.0)",-37.8128595,144.9713425,0,"Cherry Bar, Melbourne, Australia","Cherry Bar, 68, Little Collins Street, Melbourne, City of Melbourne, Victoria, 3000, Australia","(-37.8128595, 144.9713425, 0.0)",-37.8128595,144.9713425,0,Same match for venue and address.,,,
213,213,165 Rae St,Fitzroy North VIC 3068,Australia,"Pony, Melbourne, Australia",,,,,,2,FALSE,59,165 Rae St Fitzroy North VIC 3068 Australia,"Rae Street, Fitzroy North, Melbourne, City of Yarra, Victoria, 3068, Australia","(-37.7818445, 144.9804241, 0.0)",-37.7818445,144.9804241,0,"Pony, Melbourne, Australia","68 Little Collins St, Melbourne VIC 3000, Australia","(-37.8128411, 144.9713439, 0.0)",-37.8128411,144.9713439,0,Address match and venue match found but they conflict. Choose the most accurate.,,,North
95,95,9 Nicholson Street,Carlton VIC 3053,Australia,"Royal Exhibition Building, Melbourne, Australia",1880,Located in the Carlton Gardens.,"Royal Exhibition Building, Carlton Gardens, ",,,1,,24,9 Nicholson Street Carlton VIC 3053 Australia,"Royal Exhibition Building, 9, Nicholson Street, Melbourne Innovation District, Carlton, Melbourne, City of Melbourne, Victoria, 3065, Australia","(-37.8046748, 144.9714691146325, 0.0)",-37.8046748,144.9714691,0,"Royal Exhibition Building, Melbourne, Australia","Royal Exhibition Building, 9, Nicholson Street, Melbourne Innovation District, Carlton, Melbourne, City of Melbourne, Victoria, 3065, Australia","(-37.8046748, 144.9714691146325, 0.0)",-37.8046748,144.9714691,0,Same match for venue and address.,,,North
18,18,Beaconsfield Parade,St Kilda West VIC 3182,Australia,"Catani Gardens, Melbourne, Australia",,,,,,1,,13,Beaconsfield Parade St Kilda West VIC 3182 Australia,"Beaconsfield Parade, St Kilda West, Melbourne, City of Port Phillip, Victoria, 3182, Australia","(-37.8614433, 144.9731009, 0.0)",-37.8614433,144.9731009,0,"Catani Gardens, Melbourne, Australia","Catani Gardens, St Kilda West, Melbourne, City of Port Phillip, Victoria, 3182, Australia","(-37.8615861, 144.97176276625783, 0.0)",-37.8615861,144.9717628,0,Address match and venue match found but they conflict. Choose the most accurate.,,,South
189,189,20-30 Bourke Street,Melbourne VIC 3000,Australia,"Palace Theatre, Melbourne, Australia",,"Previously known as Metro Nightclub.  Not to be confused with the ""Palace Entertainment Complex"" in St Kilda.",,,4 December 2007 - 31 May 2014,2,TRUE,304,20-30 Bourke Street Melbourne VIC 3000 Australia,"Palace Theatre, 20-30, Bourke Street, Melbourne, City of Melbourne, Victoria, 3000, Australia","(-37.811183, 144.972166, 0.0)",-37.811183,144.972166,0,"Palace Theatre, Melbourne, Australia","Palace Theatre, 20-30, Bourke Street, Melbourne, City of Melbourne, Victoria, 3000, Australia","(-37.811183, 144.972166, 0.0)",-37.811183,144.972166,0,Same match for venue and address.,,,
273,273,51 Brunswick St,Fitzroy VIC 3065,Australia,"The Club, Melbourne, Australia",,,Fitzroy Workers Club,,,3,TRUE,94,51 Brunswick St Fitzroy VIC 3065 Australia,"The Workers Club, 51-55, Brunswick Street, Fitzroy, Melbourne, City of Yarra, Victoria, 3065, Australia","(-37.8055763, 144.97694473860173, 0.0)",-37.8055763,144.9769447,0,"The Club, Melbourne, Australia","The Melbourne Club, 36 Collins Street, Melbourne, City of Melbourne, Victoria, 3000, Australia","(-37.8135995, 144.9721847, 0.0)",-37.8135995,144.9721847,0,Address match and venue match found but they conflict. Choose the most accurate.,,,North
188,188,163 Spring Street,Melbourne VIC 3000,Australia,"Princess Theatre, Melbourne, Australia",1857,,,,,1,,26,163 Spring Street Melbourne VIC 3000 Australia,"Princess Theatre, 163, Spring Street, Melbourne, City of Melbourne, Victoria, 3000, Australia","(-37.81069115, 144.9723167341643, 0.0)",-37.81069115,144.9723167,0,"Princess Theatre, Melbourne, Australia","Princess Theatre, 163, Spring Street, Melbourne, City of Melbourne, Victoria, 3000, Australia","(-37.81069115, 144.9723167341643, 0.0)",-37.81069115,144.9723167,0,Same match for venue and address.,,,
122,122,,,,"Alexandra Gardens, Melbourne, Australia",,,,,,,,19,"Alexandra Gardens, Melbourne, Australia","Alexandra Gardens, Melbourne, City of Melbourne, Victoria, 3004, Australia","(-37.82113635, 144.97342992468816, 0.0)",-37.82113635,144.9734299,0,"Alexandra Gardens, Melbourne, Australia","Alexandra Gardens, Melbourne, City of Melbourne, Victoria, 3004, Australia","(-37.82113635, 144.97342992468816, 0.0)",-37.82113635,144.9734299,0,Same match for venue and address.,,,
98,98,Birrarung Marr,Melbourne VIC 3004,Australia,"Birrarung Marr, Melbourne, Australia",2002,,Birarrung Marr,,,2,TRUE,64,Birrarung Marr Melbourne VIC 3004 Australia,"Birrarung Marr, Melbourne, City of Melbourne, Victoria, 3000, Australia","(-37.819057900000004, 144.9743266242395, 0.0)",-37.8190579,144.9743266,0,"Birrarung Marr, Melbourne, Australia","Birrarung Marr, Melbourne, City of Melbourne, Victoria, 3000, Australia","(-37.819057900000004, 144.9743266242395, 0.0)",-37.8190579,144.9743266,0,Same match for venue and address.,,,
28,28,"Kings Domain Gardens, Linlithgow Avenue",Melbourne VIC 3000,Australia,"Sidney Myer Music Bowl, Melbourne, Australia",12-Feb-59,,,,,1,,277,"Kings Domain Gardens, Linlithgow Avenue Melbourne VIC 3000 Australia",,,,,,"Sidney Myer Music Bowl, Melbourne, Australia","Sidney Myer Music Bowl, Alexandra Avenue, Melbourne, City of Melbourne, Victoria, 3004, Australia","(-37.823360699999995, 144.97466943295854, 0.0)",-37.8233607,144.9746694,0,Address match and venue match found but they conflict. Choose the most accurate.,,,
26,26,Lower Esplanade,St Kilda VIC 3182,Australia,"Palais Theatre, Melbourne, Australia",12-Nov-27,"Not to be confused with the nearby ""Palace Entertainment Complex"" which opened in 1972 and closed in 2007 or the Palais de Danse located next door.",Theater Saint Kilda St Kilda,,,3,TRUE,996,Lower Esplanade St Kilda VIC 3182 Australia,"Lower Esplanade, St Kilda, Melbourne, City of Port Phillip, Victoria, 3182, Australia","(-37.8671702, 144.9763702, 0.0)",-37.8671702,144.9763702,0,"Palais Theatre, Melbourne, Australia","Palais Theatre, Cavell Street, St Kilda, Melbourne, City of Port Phillip, Victoria, 3182, Australia","(-37.8675559, 144.976061, 0.0)",-37.8675559,144.976061,0,Address match and venue match found but they conflict. Choose the most accurate.,,,South
243,243,,,,"Luna Park, Melbourne, Australia",,,,,,,,11,"Luna Park, Melbourne, Australia","Luna Park, 18, Lower Esplanade, St Kilda, Melbourne, City of Port Phillip, Victoria, 3182, Australia","(-37.8680243, 144.97690937106, 0.0)",-37.8680243,144.9769094,0,"Luna Park, Melbourne, Australia","Luna Park, 18, Lower Esplanade, St Kilda, Melbourne, City of Port Phillip, Victoria, 3182, Australia","(-37.8680243, 144.97690937106, 0.0)",-37.8680243,144.9769094,0,Same match for venue and address.,,,South
35,35,51 Brunswick St,Fitzroy VIC 3065,Australia,"The Workers Club, Melbourne, Australia",,,Fitzroy Workers Club,,,3,TRUE,205,51 Brunswick St Fitzroy VIC 3065 Australia,"The Workers Club, 51-55, Brunswick Street, Fitzroy, Melbourne, City of Yarra, Victoria, 3065, Australia","(-37.8055763, 144.97694473860173, 0.0)",-37.8055763,144.9769447,0,"The Workers Club, Melbourne, Australia","The Workers Club, 51-55, Brunswick Street, Fitzroy, Melbourne, City of Yarra, Victoria, 3065, Australia","(-37.8055763, 144.97694473860173, 0.0)",-37.8055763,144.9769447,0,Same match for venue and address.,,,North
30,30,74-76 Johnston Street,Fitzroy VIC 3065,Australia,"The Old Bar, Melbourne, Australia",,,,,,2,TRUE,171,74-76 Johnston Street Fitzroy VIC 3065 Australia,"The Old Bar, 74-76, Johnston Street, Fitzroy, Melbourne, City of Yarra, Victoria, 3065, Australia","(-37.79833, 144.97711, 0.0)",-37.79833,144.97711,0,"The Old Bar, Melbourne, Australia","The Old Bar, 74-76, Johnston Street, Fitzroy, Melbourne, City of Yarra, Victoria, 3065, Australia","(-37.79833, 144.97711, 0.0)",-37.79833,144.97711,0,Same match for venue and address.,,,North
1,1,Olympic Blvd,Melbourne VIC 3001,Australia,"Margaret Court Arena, Melbourne, Australia",12-Jan-03,Previously known as Show Court One,,,,3,TRUE,119,Olympic Blvd Melbourne VIC 3001 Australia,"Olympic Boulevard, Melbourne, City of Melbourne, Victoria, 3004, Australia","(-37.8230652, 144.9762123, 0.0)",-37.8230652,144.9762123,0,"Margaret Court Arena, Melbourne, Australia","Margaret Court Arena, Garden Square, Melbourne, City of Melbourne, Victoria, 3000, Australia","(-37.8211358, 144.9776330961672, 0.0)",-37.8211358,144.9776331,0,Address match and venue match found but they conflict. Choose the most accurate.,,,
203,203,67-71 Johnston St,Collingwood VIC 3066,Australia,"The Empress Hotel, Melbourne, Australia",1980,Closed between 17 January 2010 and June 2010,,,,3,TRUE,113,67-71 Johnston St Collingwood VIC 3066 Australia,"Johnston Street, Collingwood, Melbourne, City of Yarra, Victoria, 3066, Australia","(-37.7991571, 144.9862261, 0.0)",-37.7991571,144.9862261,0,"The Empress Hotel, Melbourne, Australia","The Empress Hotel, 714, Nicholson Street, Fitzroy North, Melbourne, City of Yarra, Victoria, 3068, Australia","(-37.7828052, 144.9778334, 0.0)",-37.7828052,144.9778334,0,Address match and venue match found but they conflict. Choose the most accurate.,,,North
4,4,317 Brunswick St,Fitzroy VIC 3065,Australia,"Bar Open, Melbourne, Australia",,,Make It Up Club,,,1,,60,317 Brunswick St Fitzroy VIC 3065 Australia,"Bar Open, 317, Brunswick Street, Fitzroy, Melbourne, City of Yarra, Victoria, 3065, Australia","(-37.79773, 144.978425, 0.0)",-37.79773,144.978425,0,"Bar Open, Melbourne, Australia","Bar Open, 317, Brunswick Street, Fitzroy, Melbourne, City of Yarra, Victoria, 3065, Australia","(-37.79773, 144.978425, 0.0)",-37.79773,144.978425,0,Same match for venue and address.,,,North
40,40,351 Brunswick St,Fitzroy VIC 3065,Australia,"Evelyn Hotel, Melbourne, Australia",,,,,,1,,441,351 Brunswick St Fitzroy VIC 3065 Australia,"Brunswick Street, Fitzroy, Melbourne, City of Yarra, Victoria, 3065, Australia","(-37.8023274, 144.9777958, 0.0)",-37.8023274,144.9777958,0,"Evelyn Hotel, Melbourne, Australia","The Evelyn Hotel, Kerr Street, Fitzroy, Melbourne, City of Yarra, Victoria, 3065, Australia","(-37.796647, 144.97855, 0.0)",-37.796647,144.97855,0,Address match and venue match found but they conflict. Choose the most accurate.,,,North
13,13,Batman Avenue and Olympic Boulevard,Melbourne VIC 3000,Australia,"Rod Laver Arena, Melbourne, Australia",11-Jan-00,Located at Melbourne Park,Rod Laver Arena at Melbourne Park,,,3,TRUE,859,Batman Avenue and Olympic Boulevard Melbourne VIC 3000 Australia,,,,,,"Rod Laver Arena, Melbourne, Australia","Rod Laver Arena, Garden Square, Melbourne, City of Melbourne, Victoria, 3000, Australia","(-37.821568799999994, 144.978587525521, 0.0)",-37.8215688,144.9785875,0,Address match and venue match found but they conflict. Choose the most accurate.,,,
44,44,165 Rae St,Fitzroy North VIC 3068,Australia,"Tramway Hotel, Melbourne, Australia",,,,,,2,FALSE,20,165 Rae St Fitzroy North VIC 3068 Australia,"Rae Street, Fitzroy North, Melbourne, City of Yarra, Victoria, 3068, Australia","(-37.7818445, 144.9804241, 0.0)",-37.7818445,144.9804241,0,"Tramway Hotel, Melbourne, Australia","Tramway Hotel, Church Street, Fitzroy North, Melbourne, City of Yarra, Victoria, 3054, Australia","(-37.7884866, 144.9790313, 0.0)",-37.7884866,144.9790313,0,Address match and venue match found but they conflict. Choose the most accurate.,,,North
176,176,Batman Avenue and Olympic Boulevard,Melbourne VIC 3000,Australia,"Melbourne Park, Melbourne, Australia",11-Jan-00,Located at Melbourne Park,Rod Laver Arena at Melbourne Park,,,3,TRUE,85,Batman Avenue and Olympic Boulevard Melbourne VIC 3000 Australia,,,,,,"Melbourne Park, Melbourne, Australia","Melbourne Park, Alexandra Avenue, Melbourne, City of Melbourne, Victoria, 3004, Australia","(-37.8213608, 144.97908836704875, 0.0)",-37.8213608,144.9790884,0,Address match and venue match found but they conflict. Choose the most accurate.,,,
91,91,57 Swan St,Richmond VIC 3121,Australia,"Rainbow Hotel, Melbourne, Australia",1871,,"Richmond, ",,,4,TRUE,13,57 Swan St Richmond VIC 3121 Australia,"Corner Hotel, 57, Swan Street, Richmond, Melbourne, City of Yarra, Victoria, 3121, Australia","(-37.82488935, 144.99266639479475, 0.0)",-37.82488935,144.9926664,0,"Rainbow Hotel, Melbourne, Australia","Rainbow Hotel, 27, St David Street, Fitzroy, Melbourne, City of Yarra, Victoria, 3065, Australia","(-37.80058375, 144.97939602156094, 0.0)",-37.80058375,144.979396,0,Address match and venue match found but they conflict. Choose the most accurate.,,,
0,0,137-141 Johnston St,Fitzroy VIC 3065,Australia,"The Night Cat, Melbourne, Australia",,,,,,2,TRUE,66,137-141 Johnston St Fitzroy VIC 3065 Australia,"Johnston Street, Fitzroy, Melbourne, City of Yarra, Victoria, 3065, Australia","(-37.7985773, 144.9807351, 0.0)",-37.7985773,144.9807351,0,"The Night Cat, Melbourne, Australia","The Night Cat, 141, Johnston Street, Fitzroy, Melbourne, City of Yarra, Victoria, 3065, Australia","(-37.7983052, 144.9794393, 0.0)",-37.7983052,144.9794393,0,Address match and venue match found but they conflict. Choose the most accurate.,,,North
251,251,,,,"Sports & Entertainment Centre, Melbourne, Australia",,,,,,,,212,"Sports & Entertainment Centre, Melbourne, Australia","AIA Centre, Main Yarra Trail Capital City Trail, Melbourne, City of Melbourne, Victoria, 3000, Australia","(-37.824083200000004, 144.97979848400237, 0.0)",-37.8240832,144.9797985,0,"Sports & Entertainment Centre, Melbourne, Australia","AIA Centre, Main Yarra Trail Capital City Trail, Melbourne, City of Melbourne, Victoria, 3000, Australia","(-37.824083200000004, 144.97979848400237, 0.0)",-37.8240832,144.9797985,0,Same match for venue and address.,,,
179,179,154 Flinders St,Melbourne VIC 3000,Australia,"National Theatre, Melbourne, Australia",1929,,,,,3,TRUE,50,154 Flinders St Melbourne VIC 3000 Australia,"The Forum, 154, Flinders Street, Melbourne, City of Melbourne, Victoria, 3000, Australia","(-37.816565, 144.96947, 0.0)",-37.816565,144.96947,0,"National Theatre, Melbourne, Australia","National Theatre, Carlisle Street, St Kilda, Melbourne, City of Port Phillip, Victoria, 3182, Australia","(-37.8668729, 144.9809316, 0.0)",-37.8668729,144.9809316,0,Address match and venue match found but they conflict. Choose the most accurate.,,,
184,184,557 St Kilda Road ,Melbourne VIC 3004,Australia,"Ormond Hall, Melbourne, Australia",1891,,,,,1,,40,557 St Kilda Road  Melbourne VIC 3004 Australia,"St Kilda Road, Melbourne, City of Melbourne, Victoria, 3004, Australia","(-37.8382018, 144.9763542, 0.0)",-37.8382018,144.9763542,0,"Ormond Hall, Melbourne, Australia","Ormond Hall, Moubray Street, Melbourne, City of Melbourne, Victoria, 3004, Australia","(-37.84746465, 144.98149134438776, 0.0)",-37.84746465,144.9814913,0,Address match and venue match found but they conflict. Choose the most accurate.,,,
223,223,,,,"Builders Arms Hotel, Melbourne, Australia",,,,,,,,11,"Builders Arms Hotel, Melbourne, Australia","Builders Arms Hotel, 211, Gertrude Street, Fitzroy, Melbourne, City of Yarra, Victoria, 3065, Australia","(-37.8060713, 144.9816516, 0.0)",-37.8060713,144.9816516,0,"Builders Arms Hotel, Melbourne, Australia","Builders Arms Hotel, 211, Gertrude Street, Fitzroy, Melbourne, City of Yarra, Victoria, 3065, Australia","(-37.8060713, 144.9816516, 0.0)",-37.8060713,144.9816516,0,Same match for venue and address.,,,North
49,49,,,,"John Cain Arena, Melbourne, Australia",,,,,,,,10,"John Cain Arena, Melbourne, Australia","John Cain Arena, 2, Olympic Boulevard, Melbourne, City of Melbourne, Victoria, 3000, Australia","(-37.8228183, 144.98189350465276, 0.0)",-37.8228183,144.9818935,0,"John Cain Arena, Melbourne, Australia","John Cain Arena, 2, Olympic Boulevard, Melbourne, City of Melbourne, Victoria, 3000, Australia","(-37.8228183, 144.98189350465276, 0.0)",-37.8228183,144.9818935,0,Same match for venue and address.,,,
144,144,,,,"Hisense Arena, Melbourne, Australia",1-Jul-08,Previously known as Vodafone Arena.,,,,,,48,"Hisense Arena, Melbourne, Australia","John Cain Arena, 2, Olympic Boulevard, Melbourne, City of Melbourne, Victoria, 3000, Australia","(-37.8228183, 144.98189350465276, 0.0)",-37.8228183,144.9818935,0,"Hisense Arena, Melbourne, Australia","John Cain Arena, 2, Olympic Boulevard, Melbourne, City of Melbourne, Victoria, 3000, Australia","(-37.8228183, 144.98189350465276, 0.0)",-37.8228183,144.9818935,0,Same match for venue and address.,,,
234,234,,,,"Vodafone Arena, Melbourne, Australia",,Later known as Hisense Arena.,Vodaphone Arena,,2000 - 30 June 2008,,,38,"Vodafone Arena, Melbourne, Australia","John Cain Arena, 2, Olympic Boulevard, Melbourne, City of Melbourne, Victoria, 3000, Australia","(-37.8228183, 144.98189350465276, 0.0)",-37.8228183,144.9818935,0,"Vodafone Arena, Melbourne, Australia","John Cain Arena, 2, Olympic Boulevard, Melbourne, City of Melbourne, Victoria, 3000, Australia","(-37.8228183, 144.98189350465276, 0.0)",-37.8228183,144.9818935,0,Same match for venue and address.,,,
66,66,99 Smith St,Fitzroy VIC 3065,Australia,"Yah Yah's, Melbourne, Australia",,,Yah Yahs Fitzroy,,,1,,54,99 Smith St Fitzroy VIC 3065 Australia,"Yah Yah's, 99-101, Smith Street, Fitzroy, Melbourne, City of Yarra, Victoria, 3065, Australia","(-37.8058662, 144.982925, 0.0)",-37.8058662,144.982925,0,"Yah Yah's, Melbourne, Australia","Yah Yah's, 99-101, Smith Street, Fitzroy, Melbourne, City of Yarra, Victoria, 3065, Australia","(-37.8058662, 144.982925, 0.0)",-37.8058662,144.982925,0,Same match for venue and address.,,,North
17,17,Brunton Ave,Richmond VIC 3002,Australia,"Melbourne Cricket Ground, Melbourne, Australia",1853,,MCG,,,1,,87,Brunton Ave Richmond VIC 3002 Australia,"Brunton Avenue, Richmond, Melbourne, City of Yarra, Victoria, 3000, Australia","(-37.823183, 144.9891255, 0.0)",-37.823183,144.9891255,0,"Melbourne Cricket Ground, Melbourne, Australia","Melbourne Cricket Ground, MCC Avenue, East Melbourne, Melbourne, City of Melbourne, Victoria, 3002, Australia","(-37.819908999999996, 144.98322500667754, 0.0)",-37.819909,144.983225,0,Address match and venue match found but they conflict. Choose the most accurate.,,,
75,75,Olympic Blvd,Melbourne VIC 3000,Australia,"AAMI Park, Melbourne, Australia",7-May-10,,Melbourne Rectangular Stadium,,,3,TRUE,22,Olympic Blvd Melbourne VIC 3000 Australia,"Olympic Boulevard, Melbourne, City of Melbourne, Victoria, 3000, Australia","(-37.823258, 144.9775986, 0.0)",-37.823258,144.9775986,0,"AAMI Park, Melbourne, Australia","AAMI Park, Olympic Boulevard, Melbourne, City of Melbourne, Victoria, 3000, Australia","(-37.82510465, 144.98374300707832, 0.0)",-37.82510465,144.983743,0,Address match and venue match found but they conflict. Choose the most accurate.,,,
225,225,,,,"Birmingham Hotel, Melbourne, Australia",,,,,,,,13,"Birmingham Hotel, Melbourne, Australia","Birmingham Hotel, 333, Smith Street, Fitzroy, Melbourne, City of Yarra, Victoria, 3066, Australia","(-37.7991054, 144.98399915850302, 0.0)",-37.7991054,144.9839992,0,"Birmingham Hotel, Melbourne, Australia","Birmingham Hotel, 333, Smith Street, Fitzroy, Melbourne, City of Yarra, Victoria, 3066, Australia","(-37.7991054, 144.98399915850302, 0.0)",-37.7991054,144.9839992,0,Same match for venue and address.,,,North
112,112,,,,"PBS Studios, Melbourne, Australia",1979,,"3PBS, ",,,,,31,"PBS Studios, Melbourne, Australia","PBS FM, Budd Street, Collingwood, Melbourne, City of Yarra, Victoria, 3066, Australia","(-37.7979829, 144.9866201, 0.0)",-37.7979829,144.9866201,0,"PBS Studios, Melbourne, Australia","PBS FM, Budd Street, Collingwood, Melbourne, City of Yarra, Victoria, 3066, Australia","(-37.7979829, 144.9866201, 0.0)",-37.7979829,144.9866201,0,Same match for venue and address.,,,North
23,23,67-71 Johnston St,Collingwood VIC 3066,Australia,"The Tote Hotel, Melbourne, Australia",1980,Closed between 17 January 2010 and June 2010,,,,3,TRUE,536,67-71 Johnston St Collingwood VIC 3066 Australia,"Johnston Street, Collingwood, Melbourne, City of Yarra, Victoria, 3066, Australia","(-37.7991571, 144.9862261, 0.0)",-37.7991571,144.9862261,0,"The Tote Hotel, Melbourne, Australia","The Tote Hotel, 71, Johnston Street, Collingwood, Melbourne, City of Yarra, Victoria, 3066, Australia","(-37.79950225, 144.9871251597662, 0.0)",-37.79950225,144.9871252,0,Address match and venue match found but they conflict. Choose the most accurate.,,,North
186,186,,,,"St Kilda Town Hall, Melbourne, Australia",,,,,,,,16,"St Kilda Town Hall, Melbourne, Australia","St Kilda Town Hall, Carlisle Street, St Kilda, Melbourne, City of Port Phillip, Victoria, 3183, Australia","(-37.86869, 144.9887130271544, 0.0)",-37.86869,144.988713,0,"St Kilda Town Hall, Melbourne, Australia","St Kilda Town Hall, Carlisle Street, St Kilda, Melbourne, City of Port Phillip, Victoria, 3183, Australia","(-37.86869, 144.9887130271544, 0.0)",-37.86869,144.988713,0,Same match for venue and address.,,,South
31,31,125 Johnston Street,Collingwood VIC 3066,Australia,"Bendigo Hotel, Melbourne, Australia",,,,,,1,,190,125 Johnston Street Collingwood VIC 3066 Australia,"Bendigo Hotel, 125, Johnston Street, Collingwood, Melbourne, City of Yarra, Victoria, 3066, Australia","(-37.79964875, 144.98911674151407, 0.0)",-37.79964875,144.9891167,0,"Bendigo Hotel, Melbourne, Australia","Bendigo Hotel, 125, Johnston Street, Collingwood, Melbourne, City of Yarra, Victoria, 3066, Australia","(-37.79964875, 144.98911674151407, 0.0)",-37.79964875,144.9891167,0,Same match for venue and address.,,,North
306,306,Punt Rd,Richmond VIC 3121,Australia,"Cricketers Arms Hotel, Melbourne, Australia",,,,,,1,,11,Punt Rd Richmond VIC 3121 Australia,"Punt Road, Richmond, Melbourne, City of Yarra, Victoria, 3121, Australia","(-37.8174962, 144.9900733, 0.0)",-37.8174962,144.9900733,0,"Cricketers Arms Hotel, Melbourne, Australia","Cricketers Arms Hotel, 327, Punt Road, Richmond, Melbourne, City of Yarra, Victoria, 3121, Australia","(-37.822751, 144.9894223, 0.0)",-37.822751,144.9894223,0,Address match and venue match found but they conflict. Choose the most accurate.,,,
111,111,,,,"Some Velvet Morning, Melbourne, Australia",,,,,,,,10,"Some Velvet Morning, Melbourne, Australia","Some Velvet Morning, 123, Queens Parade, Clifton Hill, Melbourne, City of Yarra, Victoria, 3068, Australia","(-37.7893125, 144.9900879, 0.0)",-37.7893125,144.9900879,0,"Some Velvet Morning, Melbourne, Australia","Some Velvet Morning, 123, Queens Parade, Clifton Hill, Melbourne, City of Yarra, Victoria, 3068, Australia","(-37.7893125, 144.9900879, 0.0)",-37.7893125,144.9900879,0,Same match for venue and address.,,,North
218,218,36 Porter St,Prahran VIC 3181,Australia,"Station Hotel, Melbourne, Australia",,,,,1974 - 22 October 2011,1,,45,36 Porter St Prahran VIC 3181 Australia,"Porter Street, Prahran, Melbourne, City of Stonnington, Victoria, 3181, Australia","(-37.8491398, 144.9901116, 0.0)",-37.8491398,144.9901116,0,"Station Hotel, Melbourne, Australia","Station Hotel, Greville Street, Prahran, Melbourne, City of Stonnington, Victoria, 3181, Australia","(-37.8492799, 144.9903572, 0.0)",-37.8492799,144.9903572,0,Address match and venue match found but they conflict. Choose the most accurate.,,,South
133,133,,,,"Astor Theatre, Melbourne, Australia",,,,,,,,13,"Astor Theatre, Melbourne, Australia","The Astor Theatre, Chapel Street, St Kilda, Melbourne, City of Port Phillip, Victoria, 3182, Australia","(-37.857991, 144.99186689438574, 0.0)",-37.857991,144.9918669,0,"Astor Theatre, Melbourne, Australia","The Astor Theatre, Chapel Street, St Kilda, Melbourne, City of Port Phillip, Victoria, 3182, Australia","(-37.857991, 144.99186689438574, 0.0)",-37.857991,144.9918669,0,Same match for venue and address.,,,South
11,11,57 Swan St,Richmond VIC 3121,Australia,"Corner Hotel, Melbourne, Australia",1871,,"Richmond, ",,,4,TRUE,2488,57 Swan St Richmond VIC 3121 Australia,"Corner Hotel, 57, Swan Street, Richmond, Melbourne, City of Yarra, Victoria, 3121, Australia","(-37.82488935, 144.99266639479475, 0.0)",-37.82488935,144.9926664,0,"Corner Hotel, Melbourne, Australia","Corner Hotel, 57, Swan Street, Richmond, Melbourne, City of Yarra, Victoria, 3121, Australia","(-37.82488935, 144.99266639479475, 0.0)",-37.82488935,144.9926664,0,Same match for venue and address.,,,
51,51,,,,"Boogie Man Bar, Melbourne, Australia",,,,,,,,14,"Boogie Man Bar, Melbourne, Australia","Mr Boogie Man Bar, 160, Hoddle Street, Abbotsford, Melbourne, City of Yarra, Victoria, 3067, Australia","(-37.8024481, 144.9928419, 0.0)",-37.8024481,144.9928419,0,"Boogie Man Bar, Melbourne, Australia","Mr Boogie Man Bar, 160, Hoddle Street, Abbotsford, Melbourne, City of Yarra, Victoria, 3067, Australia","(-37.8024481, 144.9928419, 0.0)",-37.8024481,144.9928419,0,Same match for venue and address.,,,North
258,258,134 Greville St,Prahran VIC 3181,Australia,"Continental Cafe, Melbourne, Australia",,,"Prahran, ",,1993 - 2001,1,,148,134 Greville St Prahran VIC 3181 Australia,"Greville Street, Prahran, Melbourne, City of Stonnington, Victoria, 3181, Australia","(-37.8490658, 144.9898111, 0.0)",-37.8490658,144.9898111,0,"Continental Cafe, Melbourne, Australia","134 Greville Street, Prahan","(-37.8494846, 144.9929983, 0.0)",-37.8494846,144.9929983,0,Address match and venue match found but they conflict. Choose the most accurate.,,,South
47,47,,,,"Collingwood Town Hall, Melbourne, Australia",,,,,,,,17,"Collingwood Town Hall, Melbourne, Australia","Collingwood Town Hall, 140, Hoddle Street, Abbotsford, Melbourne, City of Yarra, Victoria, 3067, Australia","(-37.803931649999996, 144.99301531938096, 0.0)",-37.80393165,144.9930153,0,"Collingwood Town Hall, Melbourne, Australia","Collingwood Town Hall, 140, Hoddle Street, Abbotsford, Melbourne, City of Yarra, Victoria, 3067, Australia","(-37.803931649999996, 144.99301531938096, 0.0)",-37.80393165,144.9930153,0,Same match for venue and address.,,,North
307,307,55 Highett St,Richmond VIC 3121,Australia,"Kingston Hotel, Melbourne, Australia",,,,,,1,,18,55 Highett St Richmond VIC 3121 Australia,"Highett Street, Richmond, Melbourne, City of Yarra, Victoria, 3121, Australia","(-37.8154491, 144.9960795, 0.0)",-37.8154491,144.9960795,0,"Kingston Hotel, Melbourne, Australia","Kingston Hotel, Highett Street, Richmond, Melbourne, City of Yarra, Victoria, 3121, Australia","(-37.8150191, 144.9933522, 0.0)",-37.8150191,144.9933522,0,Address match and venue match found but they conflict. Choose the most accurate.,,,
126,126,229 Chapel St,Prahran VIC 3181,Australia,"Revolver Upstairs, Melbourne, Australia",,,,,,1,,81,229 Chapel St Prahran VIC 3181 Australia,"Revolver Upstairs, 229, Chapel Street, Town Hall Car Park Prahan, Prahran, Melbourne, City of Stonnington, Victoria, 3181, Australia","(-37.8505631, 144.9934209, 0.0)",-37.8505631,144.9934209,0,"Revolver Upstairs, Melbourne, Australia","Revolver Upstairs, 229, Chapel Street, Town Hall Car Park Prahan, Prahran, Melbourne, City of Stonnington, Victoria, 3181, Australia","(-37.8505631, 144.9934209, 0.0)",-37.8505631,144.9934209,0,Same match for venue and address.,,,South
153,153,,,,"Elsternwick Park, Melbourne, Australia",,,,,,,,11,"Elsternwick Park, Melbourne, Australia","Elsternwick Park, Brighton, Melbourne, City of Bayside, Victoria, 3186, Australia","(-37.889742850000005, 144.99350699159982, 0.0)",-37.88974285,144.993507,0,"Elsternwick Park, Melbourne, Australia","Elsternwick Park, Brighton, Melbourne, City of Bayside, Victoria, 3186, Australia","(-37.889742850000005, 144.99350699159982, 0.0)",-37.88974285,144.993507,0,Same match for venue and address.,,,South
260,260,414 Hawthorn Rd,Caulfield South VIC 3162,Australia,"London Tavern, Melbourne, Australia",,,London Hotel,,,1,,36,414 Hawthorn Rd Caulfield South VIC 3162 Australia,"Hawthorn Road, Caulfield South, Melbourne, City of Glen Eira, Victoria, 3162, Australia","(-37.8907576, 145.0212435, 0.0)",-37.8907576,145.0212435,0,"London Tavern, Melbourne, Australia","London Tavern Hotel, Richmond Terrace, Richmond, Melbourne, City of Yarra, Victoria, 3121, Australia","(-37.8221435, 144.9936825, 0.0)",-37.8221435,144.9936825,0,Address match and venue match found but they conflict. Choose the most accurate.,,,
84,84,,,,"Chapel Off Chapel, Melbourne, Australia",,,The Chapel,,,,,64,"Chapel Off Chapel, Melbourne, Australia","Chapel off Chapel, Little Chapel Street, Prahran, Melbourne, City of Stonnington, Victoria, 3181, Australia","(-37.8479237, 144.9953808, 0.0)",-37.8479237,144.9953808,0,"Chapel Off Chapel, Melbourne, Australia","Chapel off Chapel, Little Chapel Street, Prahran, Melbourne, City of Stonnington, Victoria, 3181, Australia","(-37.8479237, 144.9953808, 0.0)",-37.8479237,144.9953808,0,Same match for venue and address.,,,South
141,141,295 Johnston Street,Abbotsford VIC 3067,"Victoria, Australia  3067","Yarra Hotel, Melbourne, Australia",,,,,,1,,28,"295 Johnston Street Abbotsford VIC 3067 Victoria, Australia  3067",,,,,,"Yarra Hotel, Melbourne, Australia","Yarra Hotel, 295, Johnston Street, Abbotsford, Melbourne, City of Yarra, Victoria, 3067, Australia","(-37.800341, 144.996401, 0.0)",-37.800341,144.996401,0,Address match and venue match found but they conflict. Choose the most accurate.,,,North
45,45,250 High St,Northcote VIC 3070,Australia,"Wesley Anne, Melbourne, Australia",,,,,,1,,39,250 High St Northcote VIC 3070 Australia,"Wesley Anne, 250, High Street, Ruckers Hill, Northcote, Melbourne, City of Darebin, Victoria, 3070, Australia","(-37.7729204, 144.9983987, 0.0)",-37.7729204,144.9983987,0,"Wesley Anne, Melbourne, Australia","Wesley Anne, 250, High Street, Ruckers Hill, Northcote, Melbourne, City of Darebin, Victoria, 3070, Australia","(-37.7729204, 144.9983987, 0.0)",-37.7729204,144.9983987,0,Same match for venue and address.,,,North
16,16,301 High Street,Northcote VIC 3070,Australia,"Northcote Social Club, Melbourne, Australia",2004,Formerly known as the Commercial Hotel.,NSC,,,1,,835,301 High Street Northcote VIC 3070 Australia,"Northcote Social Club, 301, High Street, Ruckers Hill, Northcote, Melbourne, City of Darebin, Victoria, 3070, Australia","(-37.7714737, 144.9984227, 0.0)",-37.7714737,144.9984227,0,"Northcote Social Club, Melbourne, Australia","Northcote Social Club, 301, High Street, Ruckers Hill, Northcote, Melbourne, City of Darebin, Victoria, 3070, Australia","(-37.7714737, 144.9984227, 0.0)",-37.7714737,144.9984227,0,Same match for venue and address.,,,North
10,10,303 High St,Northcote VIC 3070,Australia,"303 Bar, Melbourne, Australia",,,,,,1,,28,303 High St Northcote VIC 3070 Australia,"Bar 303, 303, High Street, Ruckers Hill, Northcote, Melbourne, City of Darebin, Victoria, 3070, Australia","(-37.7713536, 144.9984561, 0.0)",-37.7713536,144.9984561,0,"303 Bar, Melbourne, Australia","Bar 303, 303, High Street, Ruckers Hill, Northcote, Melbourne, City of Darebin, Victoria, 3070, Australia","(-37.7713536, 144.9984561, 0.0)",-37.7713536,144.9984561,0,Same match for venue and address.,,,North
42,42,,,,"Thornbury Theatre, Melbourne, Australia",,,,,,,,125,"Thornbury Theatre, Melbourne, Australia","Thornbury Theatre, 859, High Street, Thornbury, Melbourne, City of Darebin, Victoria, 3071, Australia","(-37.7548203, 145.0010608, 0.0)",-37.7548203,145.0010608,0,"Thornbury Theatre, Melbourne, Australia","Thornbury Theatre, 859, High Street, Thornbury, Melbourne, City of Darebin, Victoria, 3071, Australia","(-37.7548203, 145.0010608, 0.0)",-37.7548203,145.0010608,0,Same match for venue and address.,,,North
284,284,489 Glenferrie Road,Kooyong VIC 3144,Australia,"Kooyong Stadium, Melbourne, Australia",1927,,"Kooyong Lawn Tennis Club, ",,,1,,23,489 Glenferrie Road Kooyong VIC 3144 Australia,"Glenferrie Road, Kooyong, Melbourne, City of Stonnington, Victoria, 3144, Australia","(-37.8436763, 145.0315599, 0.0)",-37.8436763,145.0315599,0,"Kooyong Stadium, Melbourne, Australia","Kooyong Stadium, Glenferrie Road, Kooyong, Melbourne, City of Stonnington, Victoria, 3122, Australia","(-37.83819375, 145.0315434893742, 0.0)",-37.83819375,145.0315435,0,Address match and venue match found but they conflict. Choose the most accurate.,,,
272,272,Olympic Blvd,Melbourne VIC 3000,Australia,"Olympic Park, Melbourne, Australia",,"Demolished in 2011,",,,1956 - 2009,3,TRUE,11,Olympic Blvd Melbourne VIC 3000 Australia,"Olympic Boulevard, Melbourne, City of Melbourne, Victoria, 3000, Australia","(-37.823258, 144.9775986, 0.0)",-37.823258,144.9775986,0,"Olympic Park, Melbourne, Australia","Olympic Park, Heidelberg West, Melbourne, City of Banyule, Victoria, Australia","(-37.736972, 145.03402535629348, 0.0)",-37.736972,145.0340254,0,Address match and venue match found but they conflict. Choose the most accurate.,,,
233,233,,,,"Monash University, Caulfield, Melbourne, Australia",1990,,,,,,,10,"Monash University, Caulfield, Melbourne, Australia","Monash University (Caulfield campus), Dandenong Road, Caulfield East, Melbourne, City of Glen Eira, Victoria, 3145, Australia","(-37.8774234, 145.04496691740303, 0.0)",-37.8774234,145.0449669,0,"Monash University, Caulfield, Melbourne, Australia","Monash University (Caulfield campus), Dandenong Road, Caulfield East, Melbourne, City of Glen Eira, Victoria, 3145, Australia","(-37.8774234, 145.04496691740303, 0.0)",-37.8774234,145.0449669,0,Same match for venue and address.,,,South
211,211,Birrarung Marr,Melbourne VIC 3004,Australia,"TLC, Melbourne, Australia",2002,,Birarrung Marr,,,2,TRUE,10,Birrarung Marr Melbourne VIC 3004 Australia,"Birrarung Marr, Melbourne, City of Melbourne, Victoria, 3000, Australia","(-37.819057900000004, 144.9743266242395, 0.0)",-37.8190579,144.9743266,0,"TLC, Melbourne, Australia","The Learning Commons (formerly Physical Sciences 3), Chemistry Drive, Bundoora, Melbourne, City of Darebin, Victoria, 3086, Australia","(-37.720317249999994, 145.04758541177046, 0.0)",-37.72031725,145.0475854,0,Address match and venue match found but they conflict. Choose the most accurate.,,,
194,194,Plenty Rd & Kingsbury Dr,Bundoora VIC 3086,Australia,"La Trobe University, Melbourne, Australia",9-Dec-64,,"Bundoora, ",,,1,,54,Plenty Rd & Kingsbury Dr Bundoora VIC 3086 Australia,,,,,,"La Trobe University, Melbourne, Australia","La Trobe University (Bundoora Campus), Ring Road, Bundoora, Melbourne, City of Darebin, Victoria, 3086, Australia","(-37.7213563, 145.04885766789215, 0.0)",-37.7213563,145.0488577,0,Address match and venue match found but they conflict. Choose the most accurate.,,,North
159,159,,,,"Camberwell Civic Centre, Melbourne, Australia",,,,,,,,17,"Camberwell Civic Centre, Melbourne, Australia","Camberwell Civic Centre, 340, Camberwell Road, Camberwell, Melbourne, City of Boroondara, Victoria, 3124, Australia","(-37.83443115, 145.05894420385036, 0.0)",-37.83443115,145.0589442,0,"Camberwell Civic Centre, Melbourne, Australia","Camberwell Civic Centre, 340, Camberwell Road, Camberwell, Melbourne, City of Boroondara, Victoria, 3124, Australia","(-37.83443115, 145.05894420385036, 0.0)",-37.83443115,145.0589442,0,Same match for venue and address.,,,
67,67,,,,"MusicLand, Melbourne, Australia",,,,,,,,34,"MusicLand, Melbourne, Australia","Musicland, 1393, Burke Road, Balwyn North, Melbourne, City of Boroondara, Victoria, 3102, Australia","(-37.7946654, 145.0620066, 0.0)",-37.7946654,145.0620066,0,"MusicLand, Melbourne, Australia","Musicland, 1393, Burke Road, Balwyn North, Melbourne, City of Boroondara, Victoria, 3102, Australia","(-37.7946654, 145.0620066, 0.0)",-37.7946654,145.0620066,0,Same match for venue and address.,,,
71,71,320 Racecourse Rd,Mornington VIC 3931,Australia,"Mornington Racecourse, Mornington, Australia",1911,,Mornington Racing Club,,,1,,28,320 Racecourse Rd Mornington VIC 3931 Australia,"Racecourse Road, Mornington, Melbourne, Shire of Mornington Peninsula, Victoria, 3931, Australia","(-38.2389446, 145.0657858, 0.0)",-38.2389446,145.0657858,0,"Mornington Racecourse, Mornington, Australia","Mornington Racecourse, Lynn Close, Mornington, Melbourne, Shire of Mornington Peninsula, Victoria, 3931, Australia","(-38.2355379, 145.07081246735876, 0.0)",-38.2355379,145.0708125,0,Address match and venue match found but they conflict. Choose the most accurate.,,,
110,110,,,,"Peter Scullin Reserve, Melbourne, Australia",,,,,,,,12,"Peter Scullin Reserve, Melbourne, Australia","Peter Scullin Reserve, Mordialloc, Melbourne, City of Kingston, Victoria, Australia","(-38.0085023, 145.08451589055727, 0.0)",-38.0085023,145.0845159,0,"Peter Scullin Reserve, Melbourne, Australia","Peter Scullin Reserve, Mordialloc, Melbourne, City of Kingston, Victoria, Australia","(-38.0085023, 145.08451589055727, 0.0)",-38.0085023,145.0845159,0,Same match for venue and address.,,,
181,181,,,,"Queens Park, Melbourne, Australia",,,Queen's Park Melbourne,,,,,10,"Queens Park, Melbourne, Australia","Queens Park, Bundoora, Melbourne, City of Whittlesea, Victoria, Australia","(-37.68604485, 145.08965287291653, 0.0)",-37.68604485,145.0896529,0,"Queens Park, Melbourne, Australia","Queens Park, Bundoora, Melbourne, City of Whittlesea, Victoria, Australia","(-37.68604485, 145.08965287291653, 0.0)",-37.68604485,145.0896529,0,Same match for venue and address.,,,
191,191,,,,"Deakin University, Melbourne, Australia",,,Deacon University,,,,,13,"Deakin University, Melbourne, Australia","Deakin University, 221, Burwood Highway, Burwood, Melbourne, City of Whitehorse, Victoria, 3125, Australia","(-37.847513649999996, 145.11494914381504, 0.0)",-37.84751365,145.1149491,0,"Deakin University, Melbourne, Australia","Deakin University, 221, Burwood Highway, Burwood, Melbourne, City of Whitehorse, Victoria, 3125, Australia","(-37.847513649999996, 145.11494914381504, 0.0)",-37.84751365,145.1149491,0,Same match for venue and address.,,,
308,308,67-71 Johnston St,Collingwood VIC 3066,Australia,"Whitehorse Hotel, Melbourne, Australia",1980,Closed between 17 January 2010 and June 2010,,,,3,TRUE,10,67-71 Johnston St Collingwood VIC 3066 Australia,"Johnston Street, Collingwood, Melbourne, City of Yarra, Victoria, 3066, Australia","(-37.7991571, 144.9862261, 0.0)",-37.7991571,144.9862261,0,"Whitehorse Hotel, Melbourne, Australia","Whitehorse Hotel Cairn, 808, Whitehorse Road, Box Hill, Melbourne, City of Whitehorse, Victoria, 3128, Australia","(-37.817143, 145.1151929, 0.0)",-37.817143,145.1151929,0,Address match and venue match found but they conflict. Choose the most accurate.,,,North
262,262,Batman Ave,Melbourne VIC 3000,Australia,"Centre Court, Melbourne, Australia",,,,,1993 - 10 January 2000,1,,82,Batman Ave Melbourne VIC 3000 Australia,"Batman Avenue, Melbourne, City of Melbourne, Victoria, 3000, Australia","(-37.8161544, 144.9723661, 0.0)",-37.8161544,144.9723661,0,"Centre Court, Rod Laver Arena, Melbourne, Australia","Centre Court, Rod Laver Arena","(-37.8497809, 145.1186438, 0.0)",-37.8215688,144.978588,0,Address match and venue match found but they conflict. Choose the most accurate.,,,
121,121,19 Williamsons Rd,Doncaster VIC 3108,Australia,"Shoppingtown Hotel, Melbourne, Australia",,,,,,1,,63,19 Williamsons Rd Doncaster VIC 3108 Australia,"Shoppingtown Hotel, 19, Williamsons Road, Doncaster, Melbourne, City of Manningham, Victoria, 3108, Australia","(-37.784778, 145.123132, 0.0)",-37.784778,145.123132,0,"Shoppingtown Hotel, Melbourne, Australia","Shoppingtown Hotel, 19, Williamsons Road, Doncaster, Melbourne, City of Manningham, Victoria, 3108, Australia","(-37.784778, 145.123132, 0.0)",-37.784778,145.123132,0,Same match for venue and address.,,,
55,55,27-37 Davey St,Frankston VIC 3199,Australia,"Frankston Arts Centre, Melbourne, Australia",,,Frankston Performing Arts Centre,,,2,FALSE,43,27-37 Davey St Frankston VIC 3199 Australia,"Frankston Arts Centre, 27-37, Davey Street, Frankston, Melbourne, City of Frankston, Victoria, 3199, Australia","(-38.14614695, 145.12326813392298, 0.0)",-38.14614695,145.1232681,0,"Frankston Arts Centre, Melbourne, Australia","Frankston Arts Centre, 27-37, Davey Street, Frankston, Melbourne, City of Frankston, Victoria, 3199, Australia","(-38.14614695, 145.12326813392298, 0.0)",-38.14614695,145.1232681,0,Same match for venue and address.,,,
27,27,Springvale Rd & Wells Rd,Aspendale Gardens VIC 3196,Australia,"Chelsea Heights Hotel, Melbourne, Australia",,,,,,1,,96,Springvale Rd & Wells Rd Aspendale Gardens VIC 3196 Australia,,,,,,"Chelsea Heights Hotel, Melbourne, Australia","Chelsea Heights Hotel, 1-23, Corner Springvale Road & Wells Road, Chelsea Heights, Melbourne, City of Kingston, Victoria, 3196, Australia","(-38.0275623, 145.1330796, 0.0)",-38.0275623,145.1330796,0,Address match and venue match found but they conflict. Choose the most accurate.,,,
128,128,,,,"Monash University, Melbourne, Australia",,,,,,,,62,"Monash University, Melbourne, Australia","Monash University, Clayton Campus, 151-211, Wellington Road, Clayton, Melbourne, City of Monash, Victoria, 3800, Australia","(-37.910776350000006, 145.13480648790716, 0.0)",-37.91077635,145.1348065,0,"Monash University, Melbourne, Australia","Monash University, Clayton Campus, 151-211, Wellington Road, Clayton, Melbourne, City of Monash, Victoria, 3800, Australia","(-37.910776350000006, 145.13480648790716, 0.0)",-37.91077635,145.1348065,0,Same match for venue and address.,,,
274,274,856-868 Heatherton Rd,Springvale VIC 3171,Australia,"Waltzing Matilda Hotel, Melbourne, Australia",,,,,,1,,38,856-868 Heatherton Rd Springvale VIC 3171 Australia,"Waltzing Matilda Hotel, 856-868, Heatherton Road, Springvale, Melbourne, City of Greater Dandenong, Victoria, 3171, Australia","(-37.9631337, 145.1489545, 0.0)",-37.9631337,145.1489545,0,"Waltzing Matilda Hotel, Melbourne, Australia","Waltzing Matilda Hotel, 856-868, Heatherton Road, Springvale, Melbourne, City of Greater Dandenong, Victoria, 3171, Australia","(-37.9631337, 145.1489545, 0.0)",-37.9631337,145.1489545,0,Same match for venue and address.,,,
239,239,29 Lygon Street,Carlton VIC 3053,Australia,"The Panel, Melbourne, Australia",,,The Curtin,,,2,FALSE,16,29 Lygon Street Carlton VIC 3053 Australia,"John Curtin Hotel, 29, Lygon Street, Little Italy, Melbourne Innovation District, Carlton, Melbourne, City of Melbourne, Victoria, 3053, Australia","(-37.8062123, 144.9657806, 0.0)",-37.8062123,144.9657806,0,"The Panel, Melbourne, Australia","The Panel Shed, 19, Station Street, Diamond Creek, Melbourne, Shire of Nillumbik, Victoria, 3089, Australia","(-37.67299225, 145.1571014887378, 0.0)",-37.67299225,145.1571015,0,Address match and venue match found but they conflict. Choose the most accurate.,,,North
50,50,Springvale Rd & Ferntree Gully Rd,Mulgrave VIC 3170,Australia,"Village Green Hotel, Melbourne, Australia",,,The Village Green,,,1,,110,Springvale Rd & Ferntree Gully Rd Mulgrave VIC 3170 Australia,"Springvale Road, Ferntree Gully Road, Mulgrave, Melbourne, City of Monash, Victoria, 3150, Australia","(-37.9035752, 145.1604432, 0.0)",-37.9035752,145.1604432,0,"Village Green Hotel, Melbourne, Australia","Village Green Hotel, Ferntree Gully Road, Mulgrave, Melbourne, City of Monash, Victoria, 3170, Australia","(-37.9043603, 145.1598716, 0.0)",-37.9043603,145.1598716,0,Address match and venue match found but they conflict. Choose the most accurate.,,,
253,253,,,,"Sandown Park Hotel, Melbourne, Australia",,,,,,,,19,"Sandown Park Hotel, Melbourne, Australia","Sandown Park Hotel, Princes Highway, Noble Park, Melbourne, City of Greater Dandenong, Victoria, 3170, Australia","(-37.948966850000005, 145.1724392941149, 0.0)",-37.94896685,145.1724393,0,"Sandown Park Hotel, Melbourne, Australia","Sandown Park Hotel, Princes Highway, Noble Park, Melbourne, City of Greater Dandenong, Victoria, 3170, Australia","(-37.948966850000005, 145.1724392941149, 0.0)",-37.94896685,145.1724393,0,Same match for venue and address.,,,
178,178,238 Victoria St,Melbourne VIC 3004,Australia,"The Public Bar, Melbourne, Australia",,,,,,2,FALSE,84,238 Victoria St Melbourne VIC 3004 Australia,,,,,,"The Public Bar, Melbourne, Australia","The Public's Corner, Harmony Square, Dandenong, Melbourne, City of Greater Dandenong, Victoria, 3177, Australia","(-37.9883553, 145.2140084, 0.0)",-37.9883553,145.2140084,0,Address match and venue match found but they conflict. Choose the most accurate.,,,North
152,152,Heatherdale Road & Canterbury Rd,Ringwood VIC 3134,Australia,"Manhattan Hotel, Melbourne, Australia",,,,,,1,,55,Heatherdale Road & Canterbury Rd Ringwood VIC 3134 Australia,,,,,,"Manhattan Hotel, Melbourne, Australia","Manhattan Hotel, Heatherdale Road, Ringwood, Melbourne, City of Maroondah, Victoria, 3134, Australia","(-37.8310562, 145.2142133, 0.0)",-37.8310562,145.2142133,0,Address match and venue match found but they conflict. Choose the most accurate.,,,
61,61,,,,"Drum Theatre, Melbourne, Australia",,,Dandenong Drum Theater,,,,,13,"Drum Theatre, Melbourne, Australia","Drum Theatre, Walker Street, Dandenong, Melbourne, City of Greater Dandenong, Victoria, 3177, Australia","(-37.9877436, 145.2147467, 0.0)",-37.9877436,145.2147467,0,"Drum Theatre, Melbourne, Australia","Drum Theatre, Walker Street, Dandenong, Melbourne, City of Greater Dandenong, Victoria, 3177, Australia","(-37.9877436, 145.2147467, 0.0)",-37.9877436,145.2147467,0,Same match for venue and address.,,,
120,120,,,,"Karralyka Theatre, Melbourne, Australia",,,Karralkya Centre,,,,,11,"Karralyka Theatre, Melbourne, Australia","Karralyka Centre, Mines Road, Ringwood East, Melbourne, City of Maroondah, Victoria, 3135, Australia","(-37.8085374, 145.24327118302838, 0.0)",-37.8085374,145.2432712,0,"Karralyka Theatre, Melbourne, Australia","Karralyka Centre, Mines Road, Ringwood East, Melbourne, City of Maroondah, Victoria, 3135, Australia","(-37.8085374, 145.24327118302838, 0.0)",-37.8085374,145.2432712,0,Same match for venue and address.,,,
161,161,,,,"Hallam Hotel, Melbourne, Australia",1872,,"Halams, ",,,,,73,"Hallam Hotel, Melbourne, Australia","Hallam Hotel, Hallam South Road, Hallam, Melbourne, City of Casey, Victoria, 3803, Australia","(-38.0069948, 145.2728337824621, 0.0)",-38.0069948,145.2728338,0,"Hallam Hotel, Melbourne, Australia","Hallam Hotel, Hallam South Road, Hallam, Melbourne, City of Casey, Victoria, 3803, Australia","(-38.0069948, 145.2728337824621, 0.0)",-38.0069948,145.2728338,0,Same match for venue and address.,,,
29,29,,,,"EV's Youth Centre, Melbourne, Australia",,,"Croydon Youth Centre, ",,,,,34,"EV's Youth Centre, Melbourne, Australia","EV's Youth Centre, 212, Mount Dandenong Road, Croydon, Melbourne, City of Maroondah, Victoria, 3136, Australia","(-37.79909345, 145.28121857723278, 0.0)",-37.79909345,145.2812186,0,"EV's Youth Centre, Melbourne, Australia","EV's Youth Centre, 212, Mount Dandenong Road, Croydon, Melbourne, City of Maroondah, Victoria, 3136, Australia","(-37.79909345, 145.28121857723278, 0.0)",-37.79909345,145.2812186,0,Same match for venue and address.,,,
123,123,,,,"Croydon Park, Melbourne, Australia",,,,,,,,10,"Croydon Park, Melbourne, Australia","Croydon Park, Croydon Town Square, Croydon, Melbourne, City of Maroondah, Victoria, Australia","(-37.797481700000006, 145.28421059032496, 0.0)",-37.7974817,145.2842106,0,"Croydon Park, Melbourne, Australia","Croydon Park, Croydon Town Square, Croydon, Melbourne, City of Maroondah, Victoria, Australia","(-37.797481700000006, 145.28421059032496, 0.0)",-37.7974817,145.2842106,0,Same match for venue and address.,,,
222,222,335 Dorset Rd,Croydon VIC 3136,Australia,"Dorset Gardens Hotel, Melbourne, Australia",,,,,,1,,16,335 Dorset Rd Croydon VIC 3136 Australia,"Dorset Road, Croydon, Melbourne, City of Maroondah, Victoria, 3136, Australia","(-37.7868104, 145.2923948, 0.0)",-37.7868104,145.2923948,0,"Dorset Gardens Hotel, Melbourne, Australia","Dorset Gardens Hotel, Bayswater-Lilydale Trail, Croydon, Melbourne, City of Maroondah, Victoria, 3136, Australia","(-37.8032184, 145.2906646, 0.0)",-37.8032184,145.2906646,0,Address match and venue match found but they conflict. Choose the most accurate.,,,
198,198,,,,"Ferntree Gully Hotel, Melbourne, Australia",,,Lower Ferntree Gully,,,,,165,"Ferntree Gully Hotel, Melbourne, Australia","Ferntree Gully Hotel, 1130, Burwood Highway, Ferntree Gully, Melbourne, City of Knox, Victoria, 3156, Australia","(-37.889260050000004, 145.2972208498191, 0.0)",-37.88926005,145.2972208,0,"Ferntree Gully Hotel, Melbourne, Australia","Ferntree Gully Hotel, 1130, Burwood Highway, Ferntree Gully, Melbourne, City of Knox, Victoria, 3156, Australia","(-37.889260050000004, 145.2972208498191, 0.0)",-37.88926005,145.2972208,0,Same match for venue and address.,,,
265,265,27 High St,Berwick VIC 3806,Australia,"Lava Lounge, Melbourne, Australia",,,,,,1,,10,27 High St Berwick VIC 3806 Australia,"Westpac, 25-27, High Street, Berwick, Melbourne, City of Casey, Victoria, 3806, Australia","(-38.0308766, 145.3459918, 0.0)",-38.0308766,145.3459918,0,"Lava Lounge, Melbourne, Australia","Cafe Restaurant & Lava Lounge, High Street, Berwick, Melbourne, City of Casey, Victoria, 3806, Australia","(-38.0308694, 145.3456819, 0.0)",-38.0308694,145.3456819,0,Address match and venue match found but they conflict. Choose the most accurate.,,,
2,2,1648 Burwood Hwy,Belgrave VIC 3160,Australia,"Sooki Lounge, Melbourne, Australia",,,,,,1,,107,1648 Burwood Hwy Belgrave VIC 3160 Australia,"Sooki Lounge, 1648, Burwood Highway, Belgrave, Melbourne, Shire of Yarra Ranges, Victoria, 3160, Australia","(-37.9100746, 145.35345070507591, 0.0)",-37.9100746,145.3534507,0,"Sooki Lounge, Melbourne, Australia","Sooki Lounge, 1648, Burwood Highway, Belgrave, Melbourne, Shire of Yarra Ranges, Victoria, 3160, Australia","(-37.9100746, 145.35345070507591, 0.0)",-37.9100746,145.3534507,0,Same match for venue and address.,,,
76,76,138 York Rd,Mount Evelyn VIC 3796,Australia,"York on Lilydale, Melbourne, Australia",,,,,,1,,45,138 York Rd Mount Evelyn VIC 3796 Australia,"York on Lilydale, 138, York Road, Mount Evelyn, Melbourne, Shire of Yarra Ranges, Victoria, 3796, Australia","(-37.7957173, 145.3608012, 0.0)",-37.7957173,145.3608012,0,"York on Lilydale, Melbourne, Australia","York on Lilydale, 138, York Road, Mount Evelyn, Melbourne, Shire of Yarra Ranges, Victoria, 3796, Australia","(-37.7957173, 145.3608012, 0.0)",-37.7957173,145.3608012,0,Same match for venue and address.,,,
59,59,,,,"Cardinia Cultural Centre, Melbourne, Australia",,,,,,,,13,"Cardinia Cultural Centre, Melbourne, Australia","Cardinia Cultural Centre, Lakeside Boulevard, Pakenham, Melbourne, Shire of Cardinia, Victoria, 3810, Australia","(-38.0656552, 145.4529835398374, 0.0)",-38.0656552,145.4529835,0,"Cardinia Cultural Centre, Melbourne, Australia","Cardinia Cultural Centre, Lakeside Boulevard, Pakenham, Melbourne, Shire of Cardinia, Victoria, 3810, Australia","(-38.0656552, 145.4529835398374, 0.0)",-38.0656552,145.4529835,0,Same match for venue and address.,,,
8,8,878-880 Maroondah Hwy,Coldstream VIC 3770,Australia,"Rochford Winery, Coldstream, Australia",,,Rochfort Estate Wines,,,1,,95,878-880 Maroondah Hwy Coldstream VIC 3770 Australia,"Maroondah Highway, Coldstream, Melbourne, Shire of Yarra Ranges, Victoria, 3770, Australia","(-37.7084931, 145.4027012, 0.0)",-37.7084931,145.4027012,0,"Rochford Winery, Coldstream, Australia","Rochford Winery, Maroondah Highway, Coldstream, Melbourne, Shire of Yarra Ranges, Victoria, 3777, Australia","(-37.6861965, 145.4743071, 0.0)",-37.6861965,145.4743071,0,Address match and venue match found but they conflict. Choose the most accurate.,,,
252,252,1068 High St,Armadale VIC 3143,Australia,"Armadale Hotel, Melbourne, Australia",,,Armidale Hotel,,,1,,97,1068 High St Armadale VIC 3143 Australia,"High Street, Armadale, Melbourne, City of Stonnington, Victoria, 3143, Australia","(-37.8552822, 145.0190529, 0.0)",-37.8552822,145.0190529,0,"Armadale Hotel, Melbourne, Australia",,,,,,"Address match, but venue no match. Check for accuracy.",,,South
104,104,1 Victor Rd,Bentleigh East VIC 3165,Australia,"Caravan Music Club, Melbourne, Australia",,,,,,1,,178,1 Victor Rd Bentleigh East VIC 3165 Australia,"South Oakleigh Club, 1, Victor Road, Bentleigh East, Melbourne, City of Glen Eira, Victoria, 3165, Australia","(-37.9319183, 145.07759154683967, 0.0)",-37.9319183,145.0775915,0,"Caravan Music Club, Melbourne, Australia",,,,,,"Address match, but venue no match. Check for accuracy.",,,South
264,264,973 Nepean Hwy,Bentleigh VIC 3204,Australia,"Transformers Moorabbin, Melbourne, Australia",1988,,,,,1,,16,973 Nepean Hwy Bentleigh VIC 3204 Australia,"973, Nepean Highway, Bentleigh, Melbourne, City of Glen Eira, Victoria, 3204, Australia","(-37.9327511, 145.0346903, 0.0)",-37.9327511,145.0346903,0,"Transformers Moorabbin, Melbourne, Australia",,,,,,"Address match, but venue no match. Check for accuracy.",,,South
118,118,80 Lygon St,Brunswick East VIC 3057,Australia,"East Brunswick Club Hotel, Melbourne, Australia",,,"The B East, ",,,2,TRUE,260,80 Lygon St Brunswick East VIC 3057 Australia,"The B.East, 80, Lygon Street, Brunswick East, Melbourne, City of Merri-bek, Victoria, 3057, Australia","(-37.7763121, 144.9711859, 0.0)",-37.7762508,144.9712205,0,"East Brunswick Club Hotel, Melbourne, Australia",,,,,,"Address match, but venue no match. Check for accuracy.",,,North
14,14,133 Sydney Rd,Brunswick VIC 3056,Australia,"Stay Gold, Melbourne, Australia",,,,,,1,,69,133 Sydney Rd Brunswick VIC 3056 Australia,"Ollie's Pizza Parlour, 133, Sydney Road, Brunswick, Melbourne, City of Merri-bek, Victoria, 3056, Australia","(-37.7743469, 144.9607404, 0.0)",-37.7743973,144.9606876,0,"Stay Gold, Melbourne, Australia",,,,,,"Address match, but venue no match. Check for accuracy.",,,North
24,24,314 Sydney Rd,Brunswick VIC 3056,Australia,"Brunswick Ballroom, Melbourne, Australia",,,,,,1,,39,314 Sydney Rd Brunswick VIC 3056 Australia,"The Spotted Mallard, 314, Sydney Road, Brunswick, Melbourne, City of Merri-bek, Victoria, 3056, Australia","(-37.770456, 144.9617895, 0.0)",-37.7704888,144.9617539,0,"Brunswick Ballroom, Melbourne, Australia",,,,,,"Address match, but venue no match. Check for accuracy.",,,North
37,37,280 Sydney Rd,Brunswick VIC 3056,Australia,"The Retreat Hotel, Melbourne, Australia",,,,,,2,TRUE,49,280 Sydney Rd Brunswick VIC 3056 Australia,"Retreat Hotel, 280, Sydney Road, Brunswick, Melbourne, City of Merri-bek, Victoria, 3056, Australia","(-37.7711458, 144.961617, 0.0)",-37.7711548,144.9616189,0,"The Retreat Hotel, Melbourne, Australia",,,,,,"Address match, but venue no match. Check for accuracy.",,,North
267,267,29 Sydney Rd,Brunswick VIC 3056,Australia,"Sarah Sands Hotel, Melbourne, Australia",,,Sara Sands,,,1,,23,29 Sydney Rd Brunswick VIC 3056 Australia,"29, Sydney Road, Brunswick, Melbourne, City of Merri-bek, Victoria, 3056, Australia","(-37.7769307, 144.960332, 0.0)",-37.7769307,144.960332,0,"Sarah Sands Hotel, Melbourne, Australia",,,,,,"Address match, but venue no match. Check for accuracy.",,,North
288,288,1 Phoenix St,Brunswick VIC 3056,Australia,"Bombay Rock, Melbourne, Australia",,Later known as Bombay Bicycle Club,,,10 March 1977 - 1991,1,,151,1 Phoenix St Brunswick VIC 3056 Australia,"Phoenix Street, Brunswick, Melbourne, City of Merri-bek, Victoria, 3056, Australia","(-37.7700595, 144.9589291, 0.0)",-37.7715617,144.9600979,0,"Bombay Rock, Melbourne, Australia",,,,,,"Address match, but venue no match. Check for accuracy.",,,North
279,279,511 Nicholson St,Carlton North VIC 3054,Australia,"Hearts Nightclub, Polaris Inn, Melbourne, Australia",31-Aug-78,,,,,1,,61,511 Nicholson St Carlton North VIC 3054 Australia,"Nicholson Street, Carlton North, Melbourne, City of Yarra, Victoria, 3054, Australia","(-37.7929144, 144.9756506, 0.0)",-37.7874888,144.9764999,0,"Hearts Nightclub, Polaris Inn, Melbourne, Australia",,,,,,"Address match, but venue no match. Check for accuracy.",,,North
147,147,54 Victoria St,Carlton VIC 3053,Australia,"Bella Union Bar, Victorian Trades Hall, Melbourne, Australia",,,The Melbourne Folk Club,,,1,,27,54 Victoria St Carlton VIC 3053 Australia,"Victorian Trades Hall, 54, Victoria Street, Melbourne Innovation District, Carlton, Melbourne, City of Melbourne, Victoria, 3000, Australia","(-37.8064532, 144.96628544035215, 0.0)",-37.8064532,144.9662854,0,"Bella Union Bar, Victorian Trades Hall, Melbourne, Australia",,,,,,"Address match, but venue no match. Check for accuracy.",,,North
174,174,225 Canning St,Carlton VIC 3053,Australia,"The Dan O'Connell Hotel, Melbourne, Australia",,,,,,1,,26,225 Canning St Carlton VIC 3053 Australia,"Dan O'Connell Hotel, 225, Canning Street, Carlton, Melbourne, City of Melbourne, Victoria, 3053, Australia","(-37.793044949999995, 144.97340706656217, 0.0)",-37.7930449,144.9734071,0,"The Dan O'Connell Hotel, Melbourne, Australia",,,,,,"Address match, but venue no match. Check for accuracy.",,,North
199,199,205 Nicholson St,Carlton VIC 3053,Australia,"Stockade Hotel, Melbourne, Australia",,,,,,1,,13,205 Nicholson St Carlton VIC 3053 Australia,"Nicholson Street, Melbourne Innovation District, Carlton, Melbourne, City of Melbourne, Victoria, 3065, Australia","(-37.8014431, 144.9741899, 0.0)",-37.7950618,144.9751009,0,"Stockade Hotel, Melbourne, Australia",,,,,,"Address match, but venue no match. Check for accuracy.",,,North
249,249,1084 Dandenong Rd,Carnegie VIC 3163,Australia,"The Rosstown Hotel, Melbourne, Australia",,,,,,1,,34,1084 Dandenong Rd Carnegie VIC 3163 Australia,"Dandenong Road, Carnegie, Melbourne, City of Glen Eira, Victoria, 3163, Australia","(-37.8833999, 145.053685, 0.0)",-37.8842474,145.0577103,0,"The Rosstown Hotel, Melbourne, Australia",,,,,,"Address match, but venue no match. Check for accuracy.",,,South
69,69,667 Warrigal Rd,Chadstone VIC 3148,Australia,"Matthew Flinders Hotel, Melbourne, Australia",,,,,,1,,69,667 Warrigal Rd Chadstone VIC 3148 Australia,"667, Warrigal Road, Chadstone, Melbourne, City of Monash, Victoria, 3148, Australia","(-37.8764952, 145.0918914, 0.0)",-37.8764952,145.0918914,0,"Matthew Flinders Hotel, Melbourne, Australia",,,,,,"Address match, but venue no match. Check for accuracy.",,,
64,64,484 Smith Street,Collingwood VIC 3066,Australia,"The Gasometer Hotel, Melbourne, Australia",,,,,,1,,133,484 Smith Street Collingwood VIC 3066 Australia,"Gasometer Hotel, 484, Smith Street, Collingwood, Melbourne, City of Yarra, Victoria, 3066, Australia","(-37.79426315, 144.98535244416098, 0.0)",-37.7942368,144.9853099,0,"The Gasometer Hotel, Melbourne, Australia",,,,,,"Address match, but venue no match. Check for accuracy.",,,North
109,109,114 Smith St,Collingwood VIC 3066,Australia,"The Grace Darling Hotel, Melbourne, Australia",,,Grace Darling Hotel Melbourne,,,1,,56,114 Smith St Collingwood VIC 3066 Australia,"Grace Darling Hotel, 114, Smith Street, Collingwood, Melbourne, City of Yarra, Victoria, 3066, Australia","(-37.804851, 144.983442, 0.0)",-37.8048213,144.9834553,0,"The Grace Darling Hotel, Melbourne, Australia",,,,,,"Address match, but venue no match. Check for accuracy.",,,North
281,281,334-348 Boundary Road,Dingley Village VIC 3172,Australia,"Dingley International Hotel, Melbourne, Australia",,,,,,1,,10,334-348 Boundary Road Dingley Village VIC 3172 Australia,"Boundary Road, Dingley Village, Melbourne, City of Kingston, Victoria, 3172, Australia","(-37.9725901, 145.1118245, 0.0)",-37.9667672,145.1118244,0,"Dingley International Hotel, Melbourne, Australia",,,,,,"Address match, but venue no match. Check for accuracy.",,,
230,230,740 Bourke Street,Docklands VIC 3008,Australia,"Telstra Dome, Melbourne, Australia",,Colonial Stadium (2000-2002)###Telstra Dome (2002-2009)###Etihad Stadium (2009-2018) ###Marvel Stadium (2018-),,,October 2002 - March 2009,3,FALSE,17,740 Bourke Street Docklands VIC 3008 Australia,"Bourke Street, Victoria Harbour, Docklands, Melbourne, City of Melbourne, Victoria, 3008, Australia","(-37.820631, 144.941386, 0.0)",-37.8182356,144.9485208,0,"Telstra Dome, Melbourne, Australia",,,,,,"Address match, but venue no match. Check for accuracy.",,,
256,256,740 Bourke Street,Docklands VIC 3008,Australia,"Colonial Stadium, Melbourne, Australia",,Colonial Stadium (2000-2002)###Telstra Dome (2002-2009)###Etihad Stadium (2009-2018) ###Marvel Stadium (2018-),Docklands Stadium,,9 March 2000 - October 2002,3,FALSE,13,740 Bourke Street Docklands VIC 3008 Australia,"Bourke Street, Victoria Harbour, Docklands, Melbourne, City of Melbourne, Victoria, 3008, Australia","(-37.820631, 144.941386, 0.0)",-37.8182356,144.9485208,0,"Colonial Stadium, Melbourne, Australia",,,,,,"Address match, but venue no match. Check for accuracy.",,,
310,310,105 Pearl River Rd,Ringwood VIC 3134,Australia,"Ringwood Iceland, Melbourne, Australia",,,"Icelands, ",,1970 - 2005,1,,18,105 Pearl River Rd Docklands VIC 3008 Australia,"O'Brien Icehouse, 105, Pearl River Road, Docklands, Melbourne, City of Melbourne, Victoria, 3008, Australia","(-37.812100799999996, 144.9356627930395, 0.0)",-37.81712486,145.218167,0,"Ringwood Iceland, Melbourne, Australia",,,,,,"Address match, but venue no match. Check for accuracy.",,,
96,96,276 Nicholson St,Fitzroy VIC 3065,Australia,"Oh! Jean Records, Melbourne, Australia",,,Instore,,,1,,12,276 Nicholson St Fitzroy VIC 3065 Australia,"Shoe Clearance, 276, Nicholson Street, Fitzroy, Melbourne, City of Yarra, Victoria, 3065, Australia","(-37.796649, 144.975353, 0.0)",-37.7966118,144.9753709,0,"Oh! Jean Records, Melbourne, Australia",,,,,,"Address match, but venue no match. Check for accuracy.",,,North
137,137,387 Brunswick Street,Fitzroy VIC 3065,Australia,"Polyester Records, Melbourne, Australia",,,Instore,,,1,,16,387 Brunswick Street Fitzroy VIC 3065 Australia,"Brunswick Street, Fitzroy, Melbourne, City of Yarra, Victoria, 3065, Australia","(-37.8023274, 144.9777958, 0.0)",-37.7955928,144.9787199,0,"Polyester Records, Melbourne, Australia",,,,,,"Address match, but venue no match. Check for accuracy.",,,North
209,209,137-141 Johnston St,Fitzroy VIC 3065,Australia,"The Prague, Melbourne, Australia",,,,,,2,TRUE,10,137-141 Johnston St Fitzroy VIC 3065 Australia,"Johnston Street, Fitzroy, Melbourne, City of Yarra, Victoria, 3065, Australia","(-37.7985773, 144.9807351, 0.0)",-37.7982636,144.9794529,0,"The Prague, Melbourne, Australia",,,,,,"Address match, but venue no match. Check for accuracy.",,,North
238,238,51 Brunswick St,Fitzroy VIC 3065,Australia,"Rob Roy Hotel, Melbourne, Australia",,,,,,3,TRUE,70,51 Brunswick St Fitzroy VIC 3065 Australia,"The Workers Club, 51-55, Brunswick Street, Fitzroy, Melbourne, City of Yarra, Victoria, 3065, Australia","(-37.8055763, 144.97694473860173, 0.0)",-37.8055848,144.9770279,0,"Rob Roy Hotel, Melbourne, Australia",,,,,,"Address match, but venue no match. Check for accuracy.",,,North
255,255,376 Brunswick St,Fitzroy VIC 3065,Australia,"Punters Club Hotel, Melbourne, Australia",,,,,1987 - 17 February 2002,1,,134,376 Brunswick St Fitzroy VIC 3065 Australia,"Bimbo Deluxe, 376, Brunswick Street, Fitzroy, Melbourne, City of Yarra, Victoria, 3065, Australia","(-37.7961022, 144.9790461, 0.0)",-37.8007819,144.9780479,0,"Punters Club Hotel, Melbourne, Australia",,,,,,"Address match, but venue no match. Check for accuracy.",,,North
32,32,1 Davey St,Frankston VIC 3199,Australia,"Pier Bandroom, Melbourne, Australia",,,,,,1,,18,1 Davey St Frankston VIC 3199 Australia,"Davey Street, Frankston, Melbourne, City of Frankston, Victoria, 3199, Australia","(-38.1473667, 145.1247225, 0.0)",-38.1773898,145.152831,0,"Pier Bandroom, Melbourne, Australia",,,,,,"Address match, but venue no match. Check for accuracy.",,,
72,72,508 Nepean Hwy,Frankston VIC 3199,Australia,"Pier Hotel, Melbourne, Australia",,The upstairs room was known as 21st Century Dance Club from approximately 1987 to 2007/early 2008,"Frankston, ",,,2,TRUE,154,508 Nepean Hwy Frankston VIC 3199 Australia,"Flannigans, 508, Nepean Highway, Frankston, Melbourne, City of Frankston, Victoria, 3199, Australia","(-38.1449481, 145.119855, 0.0)",-38.1448498,145.1199899,0,"Pier Hotel, Melbourne, Australia",,,,,,"Address match, but venue no match. Check for accuracy.",,,
235,235,508 Nepean Hwy,Frankston VIC 3199,Australia,"21st Century Dance Club, Melbourne, Australia",,Located upstairs at the Pier Hotel,,,,2,TRUE,51,508 Nepean Hwy Frankston VIC 3199 Australia,"Flannigans, 508, Nepean Highway, Frankston, Melbourne, City of Frankston, Victoria, 3199, Australia","(-38.1449481, 145.119855, 0.0)",-38.1448498,145.1199899,0,"21st Century Dance Club, Melbourne, Australia",,,,,,"Address match, but venue no match. Check for accuracy.",,,
300,300,27-37 Davey St,Frankston VIC 3199,Australia,"Bananas, Melbourne, Australia",,,Frankston Performing Arts Centre,,,2,FALSE,47,27-37 Davey St Frankston VIC 3199 Australia,"Frankston Arts Centre, 27-37, Davey Street, Frankston, Melbourne, City of Frankston, Victoria, 3199, Australia","(-38.14614695, 145.12326813392298, 0.0)",-38.146147,145.1232681,0,"Bananas, Melbourne, Australia",,,,,,"Address match, but venue no match. Check for accuracy.",,,
183,183,150 Eltham-Yarra Glen Road,Kangaroo Ground VIC 3097,Australia,"Wellers of Kangaroo Ground, Kangaroo Ground, Australia",,,"Weller's, ",2015,,1,,48,150 Eltham-Yarra Glen Road Kangaroo Ground VIC 3097 Australia,"Fondata, 150, Eltham-Yarra Glen Road, Kangaroo Ground, Melbourne, Shire of Nillumbik, Victoria, 3097, Australia","(-37.7021618, 145.21267029194445, 0.0)",-37.7018128,145.2128957,0,"Wellers of Kangaroo Ground, Kangaroo Ground, Australia",,,,,,"Address match, but venue no match. Check for accuracy.",,,
290,290,299 High St,Kew VIC 3101,Australia,"Prospect Hill Hotel, Melbourne, Australia",,,Warehouse Rock,,,1,,95,299 High St Kew VIC 3101 Australia,,,,,,"Prospect Hill Hotel, Melbourne, Australia",,,,,,No geocodes found.,-37.8049426,145.035393,North
20,20,125 Swanston St,Melbourne VIC 3000,Australia,"Max Watt's House of Music, Melbourne, Australia",30-Mar-15,Previously known as The Hi-Fi,,,,1,,271,125 Swanston St Melbourne VIC 3000 Australia,"Century Building, 125, Swanston Street, Melbourne, City of Melbourne, Victoria, 3000, Australia","(-37.8147557, 144.9659879, 0.0)",-37.8147557,144.9659879,0,"Max Watt's House of Music, Melbourne, Australia",,,,,,"Address match, but venue no match. Check for accuracy.",,,
33,33,238 Victoria St,Melbourne VIC 3000,Australia,"The Last Chance Rock & Roll Bar, Melbourne, Australia",,,,,,2,FALSE,35,238 Victoria St Melbourne VIC 3000 Australia,,,,,,"The Last Chance Rock & Roll Bar, Melbourne, Australia",,,,,,No geocodes found.,-37.8059249,144.9585961,
48,48,"Building 16, 336/348 Swanston St",Melbourne VIC 3000,Australia,"Storey Hall, RMIT, Melbourne, Australia",,,Story Hall,,,1,,30,"Building 16, 336/348 Swanston St Melbourne VIC 3000 Australia",,,,,,"Storey Hall, RMIT, Melbourne, Australia",,,,,,No geocodes found.,-37.8091104,144.9638974,
53,53,154 Flinders St,Melbourne VIC 3000,Australia,"The Forum II, Melbourne, Australia",,Located upstairs from the Forum Theatre,Upstairs 2,,,3,TRUE,47,154 Flinders St Melbourne VIC 3000 Australia,"The Forum, 154, Flinders Street, Melbourne, City of Melbourne, Victoria, 3000, Australia","(-37.816565, 144.96947, 0.0)",-37.8166137,144.969582,0,"The Forum II, Melbourne, Australia",,,,,,"Address match, but venue no match. Check for accuracy.",,,
70,70,"Level 2, Curtin House, 252 Swanston St",Melbourne VIC 3000,Australia,"The Toff in Town, Melbourne, Australia",,,,,,1,,256,"Level 2, Curtin House, 252 Swanston St Melbourne VIC 3000 Australia",,,,,,"The Toff in Town, Melbourne, Australia",,,,,,No geocodes found.,-37.8119796,144.9652121,
74,74,188 Collins Street,Melbourne VIC 3000,Australia,"The Athenaeum Theatre, Melbourne, Australia",1839,,Anthenaeum,,,1,,209,188 Collins Street Melbourne VIC 3000 Australia,"188, Collins Street, Melbourne, City of Melbourne, Victoria, 3000, Australia","(-37.814921224707405, 144.96778903597124, 0.0)",-37.8149212,144.967789,0,"The Athenaeum Theatre, Melbourne, Australia",,,,,,"Address match, but venue no match. Check for accuracy.",,,
83,83,24 Block Place,Melbourne VIC 3000,Australia,"The Basement Discs, Melbourne, Australia",,,Instore,,,1,,22,24 Block Place Melbourne VIC 3000 Australia,"Block Place, Melbourne, City of Melbourne, Victoria, 3000, Australia","(-37.8150816, 144.9642459, 0.0)",-37.8158677,144.9644792,0,"The Basement Discs, Melbourne, Australia",,,,,,"Address match, but venue no match. Check for accuracy.",,,
165,165,120 Collins Street,Melbourne VIC 3000,Australia,"St Michael's Church, Melbourne, Australia",,,,,,1,,12,120 Collins Street Melbourne VIC 3000 Australia,"Elements, 120, Collins Street, Melbourne, City of Melbourne, Victoria, 3000, Australia","(-37.8139145, 144.9688622, 0.0)",-37.814098,144.9689807,0,"St Michael's Church, Melbourne, Australia",,,,,,"Address match, but venue no match. Check for accuracy.",,,
172,172,20-30 Bourke Street,Melbourne VIC 3000,Australia,"Metro Nightclub, Melbourne, Australia",,"April 1912 - 1923 Palace Theatre###1923 - 1934 The New Palace###1934 - 1940 Apollo Theatre###1940 - 1951 St James Theatre###1951 - 1974 St James Theatre & Metro###1974 - 1980 Palace Theatre###1987 - 2007 Metro Nightclub###2007 - May 2014 Palace TheatreSold in 2007 to the operators of the former The Palace Complex in St Kilda, and again became known as Palace Theatre.",Metro Theatre,,1987 - 3 December 2007,2,TRUE,124,20-30 Bourke Street Melbourne VIC 3000 Australia,"Palace Theatre, 20-30, Bourke Street, Melbourne, City of Melbourne, Victoria, 3000, Australia","(-37.811183, 144.972166, 0.0)",-37.8113697,144.9722474,0,"Metro Nightclub, Melbourne, Australia",,,,,,"Address match, but venue no match. Check for accuracy.",,,
182,182,239 Elizabeth St,Melbourne VIC 3000,Australia,"The Hi-Fi, Melbourne, Australia",,,"Instore, ",,,1,,886,239 Elizabeth St Melbourne VIC 3000 Australia,"Elizabeth Street, Melbourne, City of Melbourne, Victoria, 3000, Australia","(-37.8103786, 144.9613079, 0.0)",-37.812955,144.9622873,0,"The Hi-Fi, Melbourne, Australia",,,,,,"Address match, but venue no match. Check for accuracy.",,,
193,193,"Village Centre, 206 Bourke St",Melbourne VIC 3000,Australia,"JB Hi-Fi - Bourke Street, Melbourne, Australia",,,Instore,,,1,,15,"Village Centre, 206 Bourke St Melbourne VIC 3000 Australia",,,,,,"JB Hi-Fi - Bourke Street, Melbourne, Australia",,,,,,No geocodes found.,-37.8128748,144.9686159,
221,221,616 Elizabeth Street,Melbourne VIC 3000,Australia,"The Arthouse, Melbourne, Australia",,,Art House Hotel,,1993 - May 2011,1,,156,616 Elizabeth Street Melbourne VIC 3000 Australia,"616, Elizabeth Street, Melbourne Innovation District, Melbourne, City of Melbourne, Victoria, 3000, Australia","(-37.80390192705719, 144.9588062089721, 0.0)",-37.80390193,144.9588062,0,"The Arthouse, Melbourne, Australia",,,,,,"Address match, but venue no match. Check for accuracy.",,,
254,254,298 Flinders Ln,Melbourne VIC 3000,Australia,"The 9th Ward, Melbourne, Australia",,,The Ninth Ward,,,1,,12,298 Flinders Ln Melbourne VIC 3000 Australia,"Flinders Lane, Melbourne, City of Melbourne, Victoria, 3000, Australia","(-37.8171895, 144.9645279, 0.0)",-37.8171239,144.9642533,0,"The 9th Ward, Melbourne, Australia",,,,,,"Address match, but venue no match. Check for accuracy.",,,
266,266,1 Spring St,Melbourne VIC 3000,Australia,"Hard Rock Cafe, Melbourne, Australia",,"This is the 1970s venue, not the restaurant chain.",,,,1,,31,1 Spring St Melbourne VIC 3000 Australia,"1 Spring Street, 1, Spring Street, Melbourne, City of Melbourne, Victoria, 3000, Australia","(-37.81514, 144.97403902375942, 0.0)",-37.81514,144.974039,0,"Hard Rock Cafe, Melbourne, Australia",,,,,,"Address match, but venue no match. Check for accuracy.",,,
285,285,Batman Avenue and Olympic Boulevard,Melbourne VIC 3000,Australia,"Countdown, Melbourne, Australia",11-Jan-00,Located at Melbourne Park,Rod Laver Arena at Melbourne Park,,,3,TRUE,74,Batman Avenue and Olympic Boulevard Melbourne VIC 3000 Australia,,,,,,"Countdown, Melbourne, Australia",,,,,,No geocodes found.,,,
312,312,Exhibition St,Melbourne VIC 3000,Australia,"Teazer, Melbourne, Australia",,,Teasers,,,1,,21,Exhibition St Melbourne VIC 3000 Australia,"Exhibition Street, Melbourne, City of Melbourne, Victoria, 3000, Australia","(-37.8080872, 144.9686766, 0.0)",-37.8156803,144.9726652,0,"Teazer, Melbourne, Australia",,,,,,"Address match, but venue no match. Check for accuracy.",,,
114,114,124 Main Street,Mornington VIC 3931,Australia,"The Grand Hotel, Mornington, Australia",,,Grand Hotel Mornington,,,2,TRUE,26,124 Main Street Mornington VIC 3931 Australia,"Main Street, Mornington, Melbourne, Shire of Mornington Peninsula, Victoria, 3931, Australia","(-38.2234819, 145.0410783, 0.0)",-38.2199618,145.0390939,0,"The Grand Hotel, Mornington, Australia",,,,,,"Address match, but venue no match. Check for accuracy.",,,
115,115,62 Main Street,Mornington VIC 3931,Australia,"Publican Mornington, Mornington, Australia",,,,,,1,,11,62 Main Street Mornington VIC 3931 Australia,"Main Street, Mornington, Melbourne, Shire of Mornington Peninsula, Victoria, 3931, Australia","(-38.2234819, 145.0410783, 0.0)",-38.2259445,145.0427829,0,"Publican Mornington, Mornington, Australia",,,,,,"Address match, but venue no match. Check for accuracy.",,,
155,155,124 Main Street,Mornington VIC 3931,Australia,"The Grand Hotel, Melbourne, Australia",,,Grand Hotel Mornington,,,2,TRUE,10,124 Main Street Mornington VIC 3931 Australia,"Main Street, Mornington, Melbourne, Shire of Mornington Peninsula, Victoria, 3931, Australia","(-38.2234819, 145.0410783, 0.0)",-38.2199618,145.0390939,0,"The Grand Hotel, Melbourne, Australia",,,,,,"Address match, but venue no match. Check for accuracy.",,,
216,216,56 Courtney St,North Melbourne VIC 3051,Australia,"The Castle Hotel, Melbourne, Australia",,,,,,1,,13,56 Courtney St North Melbourne VIC 3051 Australia,"Courtney Street, North Melbourne, Melbourne, City of Melbourne, Victoria, 3051, Australia","(-37.8018894, 144.9537525, 0.0)",-37.8008617,144.9529659,0,"The Castle Hotel, Melbourne, Australia",,,,,,"Address match, but venue no match. Check for accuracy.",,,North
299,299,482 Victoria St,North Melbourne VIC 3051,Australia,"Carnaby Inn, Melbourne, Australia",,,The Carnaby Inn Hotel,,,1,,19,482 Victoria St North Melbourne VIC 3051 Australia,"Victoria Street, North Melbourne, Melbourne, City of Melbourne, Victoria, 3051, Australia","(-37.8051084, 144.949423, 0.0)",-37.8050049,144.9501652,0,"Carnaby Inn, Melbourne, Australia",,,,,,"Address match, but venue no match. Check for accuracy.",,,North
278,278,1 Cramer St,Preston VIC 3072,Australia,"Council Club Hotel, Melbourne, Australia",,Later known as Cramer's Hotel,"Cramer's Hotel, ",,,1,,71,1 Cramer St Preston VIC 3072 Australia,"Cramer Street, Preston, Melbourne, City of Darebin, Victoria, 3072, Australia","(-37.7401302, 145.0015194, 0.0)",-37.7404277,145.0026709,0,"Council Club Hotel, Melbourne, Australia",,,,,,"Address match, but venue no match. Check for accuracy.",,,North
58,58,1 Church St,Richmond VIC 3121,Australia,"The Leadbeater Hotel, Melbourne, Australia",Dec-19,Previously known as Eureka Hotel,,,,1,,11,1 Church St Richmond VIC 3121 Australia,,,,,,"The Leadbeater Hotel, Melbourne, Australia",,,,,,No geocodes found.,-37.8279014,144.9977562,
81,81,Swan St & Coppin St,Richmond VIC 3121,Australia,"The Central Club Hotel, Melbourne, Australia",,,,,,1,,142,Swan St & Coppin St Richmond VIC 3121 Australia,,,,,,"The Central Club Hotel, Melbourne, Australia",,,,,,No geocodes found.,-37.8261057,145.0027729,
257,257,57 Swan St,Richmond VIC 3121,Australia,"The Saint Hotel, Melbourne, Australia",1871,,"Richmond, ",,,4,TRUE,10,57 Swan St Richmond VIC 3121 Australia,"Corner Hotel, 57, Swan Street, Richmond, Melbourne, City of Yarra, Victoria, 3121, Australia","(-37.82488935, 144.99266639479475, 0.0)",-37.8249169,144.9926748,0,"The Saint Hotel, Melbourne, Australia",,,,,,"Address match, but venue no match. Check for accuracy.",,,
283,283,57 Swan St,Richmond VIC 3121,Australia,"Tarmac Hotel, Melbourne, Australia",1871,,"Richmond, ",,,4,TRUE,30,57 Swan St Richmond VIC 3121 Australia,"Corner Hotel, 57, Swan Street, Richmond, Melbourne, City of Yarra, Victoria, 3121, Australia","(-37.82488935, 144.99266639479475, 0.0)",-37.8249169,144.9926748,0,"Tarmac Hotel, Melbourne, Australia",,,,,,"Address match, but venue no match. Check for accuracy.",,,
309,309,527 Bridge Rd,Richmond VIC 3121,Australia,"Tiger Lounge, Royal Oak Hotel, Melbourne, Australia",,Known as Tiger Room until 10 December 1977,Tiger Room,,October 1976 - 27 January 1979,1,,55,527 Bridge Rd Richmond VIC 3121 Australia,"Royal Oak Hotel, 527, Bridge Road, Richmond, Melbourne, City of Yarra, Victoria, 3121, Australia","(-37.819279800000004, 145.00865639262187, 0.0)",-37.8189165,145.0027388,0,"Tiger Lounge, Royal Oak Hotel, Melbourne, Australia",,,,,,"Address match, but venue no match. Check for accuracy.",,,
298,298,118 Beach Rd,Sandringham VIC 3191,Australia,"Commodore Hotel, Melbourne, Australia",,,Sandringham Commodore,,,1,,43,118 Beach Rd Sandringham VIC 3191 Australia,"Beach Road, Sandringham, Melbourne, City of Bayside, Victoria, 3191, Australia","(-37.9608126, 145.011078, 0.0)",-37.9514835,145.0035292,0,"Commodore Hotel, Melbourne, Australia",,,,,,"Address match, but venue no match. Check for accuracy.",,,
286,286,362 Frankston - Dandenong Rd,Seaford VIC 3198,Australia,"Sundowner Hotel, Melbourne, Australia",,,"Coco's, ",,,1,,12,362 Frankston - Dandenong Rd Seaford VIC 3198 Australia,"Dan Murphy's, 362, Frankston-Dandenong Road, Seaford, Melbourne, City of Frankston, Victoria, 3198, Australia","(-38.1132662, 145.1556047, 0.0)",-38.1131394,145.1557539,0,"Sundowner Hotel, Melbourne, Australia",,,,,,"Address match, but venue no match. Check for accuracy.",,,
143,143,386 Chapel St,South Yarra VIC 3141,Australia,"Chasers Nightclub, Melbourne, Australia",,,Moser Room,,,1,,31,386 Chapel St South Yarra VIC 3141 Australia,"Chapel Street, South Yarra, Melbourne, City of Stonnington, Victoria, 3141, Australia","(-37.835803, 144.9963495, 0.0)",-37.8455665,144.994176,0,"Chasers Nightclub, Melbourne, Australia",,,,,,"Address match, but venue no match. Check for accuracy.",,,South
294,294,134 Toorak Rd,South Yarra VIC 3141,Australia,"Macy's, Her Majesty's Hotel, Melbourne, Australia",,,,,,1,,67,134 Toorak Rd South Yarra VIC 3141 Australia,"Toorak Road, South Yarra, Melbourne, City of Melbourne, Victoria, 3141, Australia","(-37.8382074, 144.985679, 0.0)",-37.8390454,144.9908765,0,"Macy's, Her Majesty's Hotel, Melbourne, Australia",,,,,,"Address match, but venue no match. Check for accuracy.",,,South
12,12,100 St Kilda Rd,Southbank VIC 3004,Australia,"Hamer Hall, The Arts Centre, Melbourne, Australia",2004,"Previously named Melbourne Concert Hall, renamed in honour of Sir Rupert Hamer shortly after his death in 2004",Hammer Hall,,,3,TRUE,353,100 St Kilda Rd Southbank VIC 3004 Australia,"Hamer Hall, 100, St Kilda Road, Southbank, Melbourne, City of Melbourne, Victoria, 3004, Australia","(-37.8201575, 144.9679835243618, 0.0)",-37.8201575,144.9679835,0,"Hamer Hall, The Arts Centre, Melbourne, Australia",,,,,,"Address match, but venue no match. Check for accuracy.",,,
6,6,31 Sturt St,Southbank VIC 3006,Australia,"Salon, Melbourne Recital Centre, Melbourne, Australia",2009,,,,,2,TRUE,14,31 Sturt St Southbank VIC 3006 Australia,"Sturt Street, Southbank, Melbourne, City of Melbourne, Victoria, 3006, Australia","(-37.8256395, 144.966792, 0.0)",-37.8238968,144.9675026,0,"Salon, Melbourne Recital Centre, Melbourne, Australia",,,,,,"Address match, but venue no match. Check for accuracy.",,,
21,21,31 Sturt St,Southbank VIC 3006,Australia,"Elisabeth Murdoch Hall, Melbourne Recital Centre, Melbourne, Australia",2009,,,,,2,TRUE,175,31 Sturt St Southbank VIC 3006 Australia,"Sturt Street, Southbank, Melbourne, City of Melbourne, Victoria, 3006, Australia","(-37.8256395, 144.966792, 0.0)",-37.8238968,144.9675026,0,"Elisabeth Murdoch Hall, Melbourne Recital Centre, Melbourne, Australia",,,,,,"Address match, but venue no match. Check for accuracy.",,,
22,22,"Level 3, Crown Melbourne, 8 Whiteman Street",Southbank VIC 3006,Australia,"The Palms at Crown, Melbourne, Australia",,,Crown Casino,,,2,TRUE,196,"Level 3, Crown Melbourne, 8 Whiteman Street Southbank VIC 3006 Australia",,,,,,"The Palms at Crown, Melbourne, Australia",,,,,,No geocodes found.,-37.8243007,144.9568576,
9,9,88 Acland St,St Kilda VIC 3182,Australia,"Memo Music Hall, Melbourne, Australia",,,St Kilda,,,1,,91,88 Acland St St Kilda VIC 3182 Australia,"88, Acland Street, St Kilda, Melbourne, City of Port Phillip, Victoria, 3182, Australia","(-37.8671902, 144.9786817, 0.0)",-37.8671902,144.9786817,0,"Memo Music Hall, Melbourne, Australia",,,,,,"Address match, but venue no match. Check for accuracy.",,,South
25,25,29 Fitzroy St,St Kilda VIC 3182,Australia,"Prince Bandroom, Melbourne, Australia",,,"Prince Band Room, ",,,2,TRUE,348,29 Fitzroy St St Kilda VIC 3182 Australia,"Fitzroy Street, St Kilda, Melbourne, City of Port Phillip, Victoria, 3182, Australia","(-37.8582189, 144.9801292, 0.0)",-37.8619941,144.9741339,0,"Prince Bandroom, Melbourne, Australia",,,,,,"Address match, but venue no match. Check for accuracy.",,,South
38,38,112 Acland St,St Kilda VIC 3182,Australia,"Readings Bookstore, Melbourne, Australia",,,Instore,,,1,,13,112 Acland St St Kilda VIC 3182 Australia,"112, Acland Street, St Kilda, Melbourne, City of Port Phillip, Victoria, 3182, Australia","(-37.8680756, 144.97949, 0.0)",-37.8680756,144.97949,0,"Readings Bookstore, Melbourne, Australia",,,,,,"Address match, but venue no match. Check for accuracy.",,,South
56,56,11 The Esplanade,St Kilda VIC 3182,Australia,"Gershwin Room, The Esplanade Hotel, Melbourne, Australia",,,Espy,,,2,TRUE,186,11 The Esplanade St Kilda VIC 3182 Australia,"Esplanade Hotel, 11, The Esplanade, St Kilda, Melbourne, City of Port Phillip, Victoria, 3182, Australia","(-37.8640582, 144.973013, 0.0)",-37.865864,144.9750196,0,"Gershwin Room, The Esplanade Hotel, Melbourne, Australia",,,,,,"Address match, but venue no match. Check for accuracy.",,,South
60,60,11 The Esplanade,St Kilda VIC 3182,Australia,"The Esplanade Hotel, Melbourne, Australia",,,Espy,,,2,TRUE,408,11 The Esplanade St Kilda VIC 3182 Australia,"Esplanade Hotel, 11, The Esplanade, St Kilda, Melbourne, City of Port Phillip, Victoria, 3182, Australia","(-37.8640582, 144.973013, 0.0)",-37.865864,144.9750196,0,"The Esplanade Hotel, Melbourne, Australia",,,,,,"Address match, but venue no match. Check for accuracy.",,,South
156,156,29 Fitzroy St,St Kilda VIC 3182,Australia,"The Prince of Wales, Melbourne, Australia",,,"Prince Band Room, ",,,2,TRUE,404,29 Fitzroy St St Kilda VIC 3182 Australia,"Fitzroy Street, St Kilda, Melbourne, City of Port Phillip, Victoria, 3182, Australia","(-37.8582189, 144.9801292, 0.0)",-37.8619941,144.9741339,0,"The Prince of Wales, Melbourne, Australia",,,,,,"Address match, but venue no match. Check for accuracy.",,,South
195,195,221 Barkly St,St Kilda VIC 3182,Australia,"Pure Pop Records, Melbourne, Australia",,,Instore,,,1,,28,221 Barkly St St Kilda VIC 3182 Australia,"221, Barkly Street, St Kilda, Melbourne, City of Port Phillip, Victoria, 3182, Australia","(-37.8700768, 144.980487, 0.0)",-37.8700768,144.980487,0,"Pure Pop Records, Melbourne, Australia",,,,,,"Address match, but venue no match. Check for accuracy.",,,South
206,206,Lower Esplanade,St Kilda VIC 3182,Australia,"Rockwiz, Melbourne, Australia",12-Nov-27,"Not to be confused with the nearby ""Palace Entertainment Complex"" which opened in 1972 and closed in 2007 or the Palais de Danse located next door.",Theater Saint Kilda St Kilda,,,3,TRUE,11,Lower Esplanade St Kilda VIC 3182 Australia,"Lower Esplanade, St Kilda, Melbourne, City of Port Phillip, Victoria, 3182, Australia","(-37.8671702, 144.9763702, 0.0)",-37.8654066,144.973438,0,"Rockwiz, Melbourne, Australia",,,,,,"Address match, but venue no match. Check for accuracy.",,,South
237,237,Lower Esplanade,St Kilda VIC 3182,Australia,"The Palace Complex, Melbourne, Australia",,"Not to be confused with the nearby Palais Theatre, or the Palace Theatre on Bourke Street.",Palace Entertainment Complex St Kilda,,1972 - 12 June 2007,3,TRUE,396,Lower Esplanade St Kilda VIC 3182 Australia,"Lower Esplanade, St Kilda, Melbourne, City of Port Phillip, Victoria, 3182, Australia","(-37.8671702, 144.9763702, 0.0)",-37.8654066,144.973438,0,"The Palace Complex, Melbourne, Australia",,,,,,"Address match, but venue no match. Check for accuracy.",,,South
287,287,125 Fitzroy St,St Kilda VIC 3182,Australia,"Seaview Ballroom, Melbourne, Australia",,Previously known as Crystal Ballroom. Located within the Seaview Hotel.,,,11 January 1981 - November 1987,2,FALSE,80,125 Fitzroy St St Kilda VIC 3182 Australia,"Fitzroy Street, St Kilda, Melbourne, City of Port Phillip, Victoria, 3182, Australia","(-37.8582189, 144.9801292, 0.0)",-37.859738,144.977938,0,"Seaview Ballroom, Melbourne, Australia",,,,,,"Address match, but venue no match. Check for accuracy.",,,South
303,303,125 Fitzroy St,St Kilda VIC 3182,Australia,"Crystal Ballroom, Melbourne, Australia",,Later known as Seaview Ballroom. Located within the Seaview Hotel.,"Seaview Hotel, ",,3 February 1979 - 10 January 1981,2,FALSE,92,125 Fitzroy St St Kilda VIC 3182 Australia,"Fitzroy Street, St Kilda, Melbourne, City of Port Phillip, Victoria, 3182, Australia","(-37.8582189, 144.9801292, 0.0)",-37.859738,144.977938,0,"Crystal Ballroom, Melbourne, Australia",,,,,,"Address match, but venue no match. Check for accuracy.",,,South
34,34,607 High St,Thornbury VIC 3071,Australia,"Croxton Park Hotel, Melbourne, Australia",,,"Croxton Bandroom, ",,,1,,300,607 High St Thornbury VIC 3071 Australia,"High Street, Thornbury, Melbourne, City of Darebin, Victoria, 3071, Australia","(-37.7558626, 145.0010571, 0.0)",-37.7625388,144.9993461,0,"Croxton Park Hotel, Melbourne, Australia",,,,,,"Address match, but venue no match. Check for accuracy.",,,North
124,124,445 Toorak Rd,Toorak VIC 3142,Australia,"Trak Lounge Bar, Melbourne, Australia",,,,,,1,,52,445 Toorak Rd Toorak VIC 3142 Australia,"Simply Smiles, 4/445, Toorak Road, Toorak, Melbourne, City of Stonnington, Victoria, 3142, Australia","(-37.8408224, 145.0081284, 0.0)",-37.8407602,145.0077948,0,"Trak Lounge Bar, Melbourne, Australia",,,,,,"Address match, but venue no match. Check for accuracy.",,,South
245,245,179 Chapel St,Windsor VIC 3181,Australia,"Duke of Windsor Hotel, Melbourne, Australia",,,,,,1,,32,179 Chapel St Windsor VIC 3181 Australia,"Chapel Street, Windsor, Melbourne, City of Stonnington, Victoria, 3181, Australia","(-37.8540497, 144.9929549, 0.0)",-37.8519468,144.9931619,0,"Duke of Windsor Hotel, Melbourne, Australia",,,,,,"Address match, but venue no match. Check for accuracy.",,,South
39,39,,,,"Private Venue, Melbourne, Australia",,,,,,,,111,"Private Venue, Melbourne, Australia",,,,,,"Private Venue, Melbourne, Australia",,,,,,No geocodes found.,,,
41,41,,,,"Pelly Bar, Pier Hotel, Melbourne, Australia",,,,,,,,79,"Pelly Bar, Pier Hotel, Melbourne, Australia",,,,,,"Pelly Bar, Pier Hotel, Melbourne, Australia",,,,,,No geocodes found.,-38.1449684,145.1195199,
43,43,,,,"Singing Bird Studios, Melbourne, Australia",,,,,,,,10,"Singing Bird Studios, Melbourne, Australia",,,,,,"Singing Bird Studios, Melbourne, Australia",,,,,,No geocodes found.,-38.1327518,145.1276129,
46,46,,,,"Triple R Performance Space, Melbourne, Australia",,,"3RRR FM, ",,,,,47,"Triple R Performance Space, Melbourne, Australia",,,,,,"Triple R Performance Space, Melbourne, Australia",,,,,,No geocodes found.,-37.7675276,144.9800632,
57,57,,,,"St Kilda Foreshore, Melbourne, Australia",,,Saint Kilda Beach Pier,,,,,35,"St Kilda Foreshore, Melbourne, Australia",,,,,,"St Kilda Foreshore, Melbourne, Australia",,,,,,No geocodes found.,-37.8668196,144.9736994,South
62,62,,,,"Nighthawks, Melbourne, Australia",,,"Nighthawks Pub, Collingwood",,,,,24,"Nighthawks, Melbourne, Australia",,,,,,"Nighthawks, Melbourne, Australia",,,,,,No geocodes found.,-37.8,144.98333,North
63,63,,,,"Palladium at Crown, Melbourne, Australia",,,Crown Casino,,,,,41,"Palladium at Crown, Melbourne, Australia",,,,,,"Palladium at Crown, Melbourne, Australia",,,,,,No geocodes found.,-37.8233317,144.9582858,
78,78,,,,"Plaza Tavern, Melbourne, Australia",,,,,,,,10,"Plaza Tavern, Melbourne, Australia",,,,,,"Plaza Tavern, Melbourne, Australia",,,,,,No geocodes found.,-37.8776453,144.6830132,
79,79,,,,"Melton Macs Hotel, Melbourne, Australia",,,,,,,,13,"Melton Macs Hotel, Melbourne, Australia",,,,,,"Melton Macs Hotel, Melbourne, Australia",,,,,,No geocodes found.,-37.68296,144.582747,
82,82,,,,"Bird's Basement Jazz Club, Melbourne, Australia",,,,,,,,62,"Bird's Basement Jazz Club, Melbourne, Australia",,,,,,"Bird's Basement Jazz Club, Melbourne, Australia",,,,,,No geocodes found.,-37.8112608,144.9564788,North
86,86,,,,"The Burvale Hotel, Melbourne, Australia",,,,,,,,15,"The Burvale Hotel, Melbourne, Australia",,,,,,"The Burvale Hotel, Melbourne, Australia",,,,,,No geocodes found.,-37.8538928,145.1706325,
87,87,,,,"Bang Nightclub, Melbourne, Australia",,,Bang!,,,,,30,"Bang Nightclub, Melbourne, Australia",,,,,,"Bang Nightclub, Melbourne, Australia",,,,,,No geocodes found.,-37.8455693,144.9794198,
88,88,,,,"Wrangler Studios, Melbourne, Australia",,,,,,,,66,"Wrangler Studios, Melbourne, Australia",,,,,,"Wrangler Studios, Melbourne, Australia",,,,,,No geocodes found.,-37.8112634,144.8640866,
90,90,,,,"Playhouse, The Arts Centre, Melbourne, Australia",,,,,,,,27,"Playhouse, The Arts Centre, Melbourne, Australia",,,,,,"Playhouse, The Arts Centre, Melbourne, Australia",,,,,,No geocodes found.,-37.821852,144.968341,
92,92,,,,"Front Bar, The Esplanade Hotel, Melbourne, Australia",,,Espy,,,,,66,"Front Bar, The Esplanade Hotel, Melbourne, Australia",,,,,,"Front Bar, The Esplanade Hotel, Melbourne, Australia",,,,,,No geocodes found.,-37.865864,144.9750196,South
94,94,,,,"Plenary Hall, Melbourne Convention and Exhibition Centre, Melbourne, Australia",,,MCEC,,,,,43,"Plenary Hall, Melbourne Convention and Exhibition Centre, Melbourne, Australia",,,,,,"Plenary Hall, Melbourne Convention and Exhibition Centre, Melbourne, Australia",,,,,,No geocodes found.,-37.8253349,144.9524341,
97,97,,,,"Basement, The Esplanade Hotel, Melbourne, Australia",,,,,,,,16,"Basement, The Esplanade Hotel, Melbourne, Australia",,,,,,"Basement, The Esplanade Hotel, Melbourne, Australia",,,,,,No geocodes found.,-37.865864,144.9750196,South
102,102,,,,"The Fyrefly, Melbourne, Australia",,,,,,,,10,"The Fyrefly, Melbourne, Australia",,,,,,"The Fyrefly, Melbourne, Australia",,,,,,No geocodes found.,-37.8640833,144.982999,South
106,106,,,,"The Penny Black, Melbourne, Australia",,,,,,,,19,"The Penny Black, Melbourne, Australia",,,,,,"The Penny Black, Melbourne, Australia",,,,,,No geocodes found.,-37.7681139,144.9621265,North
119,119,,,,"The Gasometer Hotel (Upstairs), Melbourne, Australia",,,,,,,,19,"The Gasometer Hotel (Upstairs), Melbourne, Australia",,,,,,"The Gasometer Hotel (Upstairs), Melbourne, Australia",,,,,,No geocodes found.,-37.7942368,144.9853099,North
127,127,,,,"Melbourne Convention and Exhibition Centre, Melbourne, Australia",,,MCEC,,,,,20,"Melbourne Convention and Exhibition Centre, Melbourne, Australia",,,,,,"Melbourne Convention and Exhibition Centre, Melbourne, Australia",,,,,,No geocodes found.,-37.8253349,144.9524341,
129,129,,,,"State Theatre, The Arts Centre, Melbourne, Australia",,,,,,,,39,"State Theatre, The Arts Centre, Melbourne, Australia",,,,,,"State Theatre, The Arts Centre, Melbourne, Australia",,,,,,No geocodes found.,-37.821852,144.968341,
139,139,,,,"The Flying Saucer Club, Melbourne, Australia",,,,,,,,51,"The Flying Saucer Club, Melbourne, Australia",,,,,,"The Flying Saucer Club, Melbourne, Australia",,,,,,No geocodes found.,-37.9403558,145.0393359,
142,142,,,,"The Reverence Hotel, Melbourne, Australia",,,The Reverence Hotel,,,,,98,"The Reverence Hotel, Melbourne, Australia",,,,,,"The Reverence Hotel, Melbourne, Australia",,,,,,No geocodes found.,-37.8050646,144.9047603,
145,145,,,,"Triple M Studios, Melbourne, Australia",,,MMM,,,,,14,"Triple M Studios, Melbourne, Australia",,,,,,"Triple M Studios, Melbourne, Australia",,,,,,No geocodes found.,-37.8293627,144.9619992,
149,149,,,,"ACDC Lane, Melbourne, Australia",,,,,,,,15,"ACDC Lane, Melbourne, Australia",,,,,,"ACDC Lane, Melbourne, Australia",,,,,,No geocodes found.,-37.8153838,144.9708267,
160,160,,,,"St Andrew's Hotel, Melbourne, Australia",,,,,,,,10,"St Andrew's Hotel, Melbourne, Australia",,,,,,"St Andrew's Hotel, Melbourne, Australia",,,,,,No geocodes found.,-37.8018198,144.9745189,North
166,166,,,,"The Colonial Hotel, Melbourne, Australia",,,,,,,,20,"The Colonial Hotel, Melbourne, Australia",,,,,,"The Colonial Hotel, Melbourne, Australia",,,,,,No geocodes found.,-37.8122437,144.9623478,
167,167,,,,"Milanos Hotel, Melbourne, Australia",,,,,,,,12,"Milanos Hotel, Melbourne, Australia",,,,,,"Milanos Hotel, Melbourne, Australia",,,,,,No geocodes found.,-37.9267443,144.9900775,North
169,169,,,,"Shebeen, Melbourne, Australia",,,,,,,,25,"Shebeen, Melbourne, Australia",,,,,,"Shebeen, Melbourne, Australia",,,,,,No geocodes found.,-37.8165514,144.9662678,
170,170,,,,"The Shadow Electric Bar @ The Abbotsford Convent, Melbourne, Australia",,,,,,,,14,"The Shadow Electric Bar @ The Abbotsford Convent, Melbourne, Australia",,,,,,"The Shadow Electric Bar @ The Abbotsford Convent, Melbourne, Australia",,,,,,No geocodes found.,-37.8023986,145.004276,North
171,171,,,,"3RRR 102.7FM, Melbourne, Australia",,,"FM Radio, ",,,,,15,"3RRR 102.7FM, Melbourne, Australia",,,,,,"3RRR 102.7FM, Melbourne, Australia",,,,,,No geocodes found.,-37.7675276,144.9800632,
175,175,,,,"The Spiegeltent, Melbourne, Australia",,,,,,,,80,"The Spiegeltent, Melbourne, Australia",,,,,,"The Spiegeltent, Melbourne, Australia",,,,,,No geocodes found.,-37.7993358,144.9864549,North
177,177,,,,"Foxtel Festival Hub, Melbourne, Australia",,,,,,,,14,"Foxtel Festival Hub, Melbourne, Australia",,,,,,"Foxtel Festival Hub, Melbourne, Australia",,,,,,No geocodes found.,,,
180,180,"630 S Rd, Moorabbin VIC 3189, Australia",,,"Sandbelt Club Hotel, Melbourne, Australia",,,,,,1,,14,"Sandbelt Club Hotel, Melbourne, Australia",,,,,,"Sandbelt Club Hotel, Melbourne, Australia",,,,,,No geocodes found.,-37.9375193,145.0677559,
185,185,,,,"Pelican Bar, Melbourne, Australia",,,,,,,,10,"Pelican Bar, Melbourne, Australia",,,,,,"Pelican Bar, Melbourne, Australia",,,,,,No geocodes found.,,,
190,190,,,,"Revolt Melbourne Artspace, Melbourne, Australia",,,,,,,,10,"Revolt Melbourne Artspace, Melbourne, Australia",,,,,,"Revolt Melbourne Artspace, Melbourne, Australia",,,,,,No geocodes found.,-37.7965126,144.9319336,
192,192,,,,"Mercury Lounge, Melbourne, Australia",,Located within the Crown Casino,,,,,,70,"Mercury Lounge, Melbourne, Australia",,,,,,"Mercury Lounge, Melbourne, Australia",,,,,,No geocodes found.,-37.8235638,144.9597457,
196,196,,,,"Heineken Beer Garden, Melbourne, Australia",,,,,,,,50,"Heineken Beer Garden, Melbourne, Australia",,,,,,"Heineken Beer Garden, Melbourne, Australia",,,,,,No geocodes found.,,,
197,197,,,,"Billboard The Venue, Melbourne, Australia",,,,,,,,278,"Billboard The Venue, Melbourne, Australia",,,,,,"Billboard The Venue, Melbourne, Australia",,,,,,No geocodes found.,-37.8123258,144.9676089,
202,202,,,,"Public Bar, The Esplanade Hotel, Melbourne, Australia",,,Espy,,,,,16,"Public Bar, The Esplanade Hotel, Melbourne, Australia",,,,,,"Public Bar, The Esplanade Hotel, Melbourne, Australia",,,,,,No geocodes found.,-37.8640582,144.973013,South
204,204,,,,"Gertrude's Brown Couch, Melbourne, Australia",,,,,,,,14,"Gertrude's Brown Couch, Melbourne, Australia",,,,,,"Gertrude's Brown Couch, Melbourne, Australia",,,,,,No geocodes found.,-37.8056756,144.9751917,North
207,207,,,,"Irene's Warehouse, Melbourne, Australia",,,,,,,,18,"Irene's Warehouse, Melbourne, Australia",,,,,,"Irene's Warehouse, Melbourne, Australia",,,,,,No geocodes found.,-37.7711266,144.9707347,North
208,208,,,,"Noise Bar, Melbourne, Australia",,,,,,,,12,"Noise Bar, Melbourne, Australia",,,,,,"Noise Bar, Melbourne, Australia",,,,,,No geocodes found.,-37.7684031,144.9600877,North
210,210,,,,"Ruby's Lounge, Melbourne, Australia",,,"Belgrave, ",,,,,130,"Ruby's Lounge, Melbourne, Australia",,,,,,"Ruby's Lounge, Melbourne, Australia",,,,,,No geocodes found.,-37.9100249,145.3534329,
214,214,,,,"Phoenix Public House, Melbourne, Australia",,,,,,,,17,"Phoenix Public House, Melbourne, Australia",,,,,,"Phoenix Public House, Melbourne, Australia",,,,,,No geocodes found.,-37.7743973,144.9606876,North
217,217,,,,"fist2face, Melbourne, Australia",,,,,,,,13,"fist2face, Melbourne, Australia",,,,,,"fist2face, Melbourne, Australia",,,,,,No geocodes found.,-37.8137701,145.2333145,
219,219,,,,"The Greyhound Hotel, Melbourne, Australia",,,,,,,,35,"The Greyhound Hotel, Melbourne, Australia",,,,,,"The Greyhound Hotel, Melbourne, Australia",,,,,,No geocodes found.,-37.8683028,144.9867719,South
220,220,,,,"Cat Food Press, Melbourne, Australia",,,,,,,,11,"Cat Food Press, Melbourne, Australia",,,,,,"Cat Food Press, Melbourne, Australia",,,,,,No geocodes found.,,,
224,224,,,,"Hey Hey It's Saturday, Melbourne, Australia",,Filmed at GTV Television Channel 9 studios in Melbourne.###9 October 1971 – 20 November 1999 (first run)###30 September and 7 October 2009 (reunion specials)###14 April 2010 – 27 November 2010 (second run),"Hey Hey It's Saturday Night, ",,9 October 1971 - 27 November 2010,,,76,"Hey Hey It's Saturday, Melbourne, Australia",,,,,,"Hey Hey It's Saturday, Melbourne, Australia",,,,,,No geocodes found.,,,
226,226,,,,"Rove Live, Melbourne, Australia",,,"Channel 10 Studios, ",,22 September 1999 - 15 November 2009,,,36,"Rove Live, Melbourne, Australia",,,,,,"Rove Live, Melbourne, Australia",,,,,,No geocodes found.,,,
227,227,,,,"Aberdeen Hotel, Melbourne, Australia",,,,,,,,14,"Aberdeen Hotel, Melbourne, Australia",,,,,,"Aberdeen Hotel, Melbourne, Australia",,,,,,No geocodes found.,-37.780115,144.986768,North
228,228,,,,"New Capers, Melbourne, Australia",,,,,,,,16,"New Capers, Melbourne, Australia",,,,,,"New Capers, Melbourne, Australia",,,,,,No geocodes found.,-37.7552407,145.0009924,
229,229,,,,"Spiegelworld Garden, Melbourne, Australia",,,,,,,,14,"Spiegelworld Garden, Melbourne, Australia",,,,,,"Spiegelworld Garden, Melbourne, Australia",,,,,,No geocodes found.,,,
231,231,,,,"Queensbridge Hotel, Melbourne, Australia",,,"QBH, ",,,,,14,"Queensbridge Hotel, Melbourne, Australia",,,,,,"Queensbridge Hotel, Melbourne, Australia",,,,,,No geocodes found.,-37.8219363,144.9616316,
236,236,,,,"Brass Monkey, Melbourne, Australia",,,,,,,,12,"Brass Monkey, Melbourne, Australia",,,,,,"Brass Monkey, Melbourne, Australia",,,,,,No geocodes found.,,,
241,241,,,,"Dallas Brooks Centre, Melbourne, Australia",1993,Previously known as Dallas Brooks Hall.,,,,,,23,"Dallas Brooks Centre, Melbourne, Australia",,,,,,"Dallas Brooks Centre, Melbourne, Australia",,,,,,No geocodes found.,-37.810009,144.9816742,
242,242,,,,"RRR Rooftop, Melbourne, Australia",,,3RRR,,,,,23,"RRR Rooftop, Melbourne, Australia",,,,,,"RRR Rooftop, Melbourne, Australia",,,,,,No geocodes found.,-37.7675276,144.9800632,
244,244,,,,"HMV Bourke St Mall, Melbourne, Australia",,,Instore,,,,,12,"HMV Bourke St Mall, Melbourne, Australia",,,,,,"HMV Bourke St Mall, Melbourne, Australia",,,,,,No geocodes found.,-37.8164534,144.9556614,
246,246,,,,"Goo @ Rebar, Melbourne, Australia",,,,,,,,10,"Goo @ Rebar, Melbourne, Australia",,,,,,"Goo @ Rebar, Melbourne, Australia",,,,,,No geocodes found.,,,
247,247,,,,"Gaslight Music, Melbourne, Australia",,,"Gaslight Records, ",,,,,23,"Gaslight Music, Melbourne, Australia",,,,,,"Gaslight Music, Melbourne, Australia",,,,,,No geocodes found.,,,
248,248,,,,"Melbourne Hotel, Brisbane, Australia",,,,,,,,10,"Melbourne Hotel, Brisbane, Australia",,,,,,"Melbourne Hotel, Brisbane, Australia",,,,,,No geocodes found.,,,
261,261,,,,"Recovery TV, Melbourne, Australia",,,"10AM Recovery, ",,20 April 1996 - 29 April 2000,,,40,"Recovery TV, Melbourne, Australia",,,,,,"Recovery TV, Melbourne, Australia",,,,,,No geocodes found.,,,
263,263,,,,"The Venue, Melbourne, Australia",,,,,,,,131,"The Venue, Melbourne, Australia",,,,,,"The Venue, Melbourne, Australia",,,,,,No geocodes found.,,,
269,269,,,,"Doncaster Inn, Melbourne, Australia",,,Doncaster Hotel,,,,,14,"Doncaster Inn, Melbourne, Australia",,,,,,"Doncaster Inn, Melbourne, Australia",,,,,,No geocodes found.,-37.7867024,145.1430845,
270,270,,,,"Dallas Brooks Hall, Melbourne, Australia",,Later known as Dallas Brooks Centre.,,,1969 - 1993,,,76,"Dallas Brooks Hall, Melbourne, Australia",,,,,,"Dallas Brooks Hall, Melbourne, Australia",,,,,,No geocodes found.,-37.810009,144.9816742,
271,271,,,,"National Tennis Centre at Flinders Park, Melbourne, Australia",,,,,1988 - 1996,,,183,"National Tennis Centre at Flinders Park, Melbourne, Australia",,,,,,"National Tennis Centre at Flinders Park, Melbourne, Australia",,,,,,No geocodes found.,-37.8215688,144.9785875,
275,275,,,,"Club Chevron, Melbourne, Australia",,Now Chevron Green Apartments,Chevron Hotel,,,,,53,"Club Chevron, Melbourne, Australia",,,,,,"Club Chevron, Melbourne, Australia",,,,,,No geocodes found.,,,
276,276,,,,"The Powerhouse, Melbourne, Australia",,,,,,,,12,"The Powerhouse, Melbourne, Australia",,,,,,"The Powerhouse, Melbourne, Australia",,,,,,No geocodes found.,-37.8501235,144.9771554,South
277,277,,,,"Old Greek Theatre, Melbourne, Australia",,in Richmond,,,,,,57,"Old Greek Theatre, Melbourne, Australia",,,,,,"Old Greek Theatre, Melbourne, Australia",,,,,,No geocodes found.,-37.8189642,145.0037432,
280,280,,,,"ID's Nitespot, Melbourne, Australia",,,,,,,,13,"ID's Nitespot, Melbourne, Australia",,,,,,"ID's Nitespot, Melbourne, Australia",,,,,,No geocodes found.,,,
282,282,,,,"Sentimental Bloke Hotel, Melbourne, Australia",,Later the Manningham Hotel,,,,,,35,"Sentimental Bloke Hotel, Melbourne, Australia",,,,,,"Sentimental Bloke Hotel, Melbourne, Australia",,,,,,No geocodes found.,-37.7769109,145.0868119,
289,289,,,,"Caulfield Institute of Technology, Melbourne, Australia",,Opened under this name in the 1970s. Merged with State College of Victoria at Frankston to form the Caulfield campus of Monash University,CIT,,1970 - 1990,,,11,"Caulfield Institute of Technology, Melbourne, Australia",,,,,,"Caulfield Institute of Technology, Melbourne, Australia",,,,,,No geocodes found.,-37.8774234,145.0449669,
291,291,,,,"Melbourne State College, Melbourne, Australia",,,,,,,,12,"Melbourne State College, Melbourne, Australia",,,,,,"Melbourne State College, Melbourne, Australia",,,,,,No geocodes found.,,,
292,292,,,,"Tottenham Hotel, Melbourne, Australia",,,,,,,,13,"Tottenham Hotel, Melbourne, Australia",,,,,,"Tottenham Hotel, Melbourne, Australia",,,,,,No geocodes found.,-37.79853,144.86263,
293,293,,,,"Ethel Hall, Swinburne University of Technology, Melbourne, Australia",,,,,,,,13,"Ethel Hall, Swinburne University of Technology, Melbourne, Australia",,,,,,"Ethel Hall, Swinburne University of Technology, Melbourne, Australia",,,,,,No geocodes found.,-37.8231885,145.0337136,
296,296,,,,"Mount Erica Hotel, Melbourne, Australia",,,Mt Erica,,,,,11,"Mount Erica Hotel, Melbourne, Australia",,,,,,"Mount Erica Hotel, Melbourne, Australia",,,,,,No geocodes found.,-37.8532733,145.0027526,
297,297,,,,"The Jump Club, Melbourne, Australia",,,,,,,,32,"The Jump Club, Melbourne, Australia",,,,,,"The Jump Club, Melbourne, Australia",,,,,,No geocodes found.,,,
301,301,,,,"Poynton's Carlton Club Hotel, Melbourne, Australia",,,,,,,,12,"Poynton's Carlton Club Hotel, Melbourne, Australia",,,,,,"Poynton's Carlton Club Hotel, Melbourne, Australia",,,,,,No geocodes found.,-37.8131551,144.9676339,
302,302,,,,"Martini's, Imperial Club Hotel, Melbourne, Australia",1974,Later known as Rathdowne Tavern,,,,,,58,"Martini's, Imperial Club Hotel, Melbourne, Australia",,,,,,"Martini's, Imperial Club Hotel, Melbourne, Australia",,,,,,No geocodes found.,-37.7947575,144.9712293,North
304,304,,,,"Southside Six Hotel, Melbourne, Australia",,,South Side 6,,,,,40,"Southside Six Hotel, Melbourne, Australia",,,,,,"Southside Six Hotel, Melbourne, Australia",,,,,,No geocodes found.,,,
305,305,,,,"Sovereign Hotel, Melbourne, Australia",,,,,,,,12,"Sovereign Hotel, Melbourne, Australia",,,,,,"Sovereign Hotel, Melbourne, Australia",,,,,,No geocodes found.,,,
311,311,,,,"Chelsea Civic Centre, Melbourne, Australia",,,,,,,,11,"Chelsea Civic Centre, Melbourne, Australia",,,,,,"Chelsea Civic Centre, Melbourne, Australia",,,,,,No geocodes found.,,,
313,313,,,,"Fairsky, Melbourne, Australia",,Passenger ship,,,1958 - 1977,,,28,"Fairsky, Melbourne, Australia",,,,,,"Fairsky, Melbourne, Australia",,,,,,No geocodes found.,,,